Name,Notes,Address Short,City State Zip,Address Consolidated,Latitude,Longitude
2hunned Inc Nonprofit,3rd Friday 3pm - 6pm & 3rd Saturday 8am-11am,2028 E. El Segundo Blvd,"Compton, CA 90222, United States","2028 E. El Segundo Blvd Compton, CA 90222, United States",33.9159436,-118.2362831
A World With Compassion,2nd & 4th Saturday 12pm-3pm,2912 Guirado St,"Los Angeles, CA 90023, United States","2912 Guirado St Los Angeles, CA 90023, United States",34.0324539,-118.2072934
Aaron Community Cultural Center (ACCC),Tuesdays 10am-12pm,1010 W 108th Street #B,"Los Angeles, CA 90044, United States","1010 W 108th Street #B Los Angeles, CA 90044, United States",33.9379128,-118.29252
Abundant Blessings,Sunday-Saturday 9am - 12pm,2414 W. 48th St,"Los Angeles, CA 90043, United States","2414 W. 48th St Los Angeles, CA 90043, United States",33.9998775,-118.3198318
Adonai SDA Church,1st and 3rd Saturday 3pm-5pm,13246 Mapledale Street,"Norwalk, CA 90650, United States","13246 Mapledale Street Norwalk, CA 90650, United States",33.898381,-118.0484998
Adventures to Dreams Enrichment,3rd Friday 12pm-2pm,903 De Forest Ave,"Long Beach, CA 90813, United States","903 De Forest Ave Long Beach, CA 90813, United States",33.7774309,-118.2036404
"AfricActive Foundation, Inc.",Saturday 11am - 1pm,5036 Exposition Blvd,"Los Angeles, CA 90016, United States","5036 Exposition Blvd Los Angeles, CA 90016, United States",34.0243854,-118.3525417
Agape Community Church,Saturday 9:30am-10:30am,1722 E Lancaster Blvd,"Lancaster, CA 93535, United States","1722 E Lancaster Blvd Lancaster, CA 93535, United States",34.6960893,-118.0981484
All Nations Christian Fellowship,Saturdays 7am - 9am,5602 E. Gage Ave,"Bell Gardens, CA 90201, United States","5602 E. Gage Ave Bell Gardens, CA 90201, United States",33.9754377,-118.1648903
All Peoples Community Center,Friday 9:30am-12:30pm & 2nd & 4th Saturday 9:30am-12:30pm,822 E. 20th Street,"Los Angeles, CA 90011, United States","822 E. 20th Street Los Angeles, CA 90011, United States",34.0259008,-118.2564727
All Saints Conference,Bi-Weekly Saturday 9 - 11am,3431 Portola Avenue,"Los Angeles, CA 90032, United States","3431 Portola Avenue Los Angeles, CA 90032, United States",34.0856956,-118.1729503
Altadena S.D.A. Church,2nd and 4th Tuesday 9am - 12pm,2609 N. Lincoln Avenue,"Altadena, CA 91001, United States","2609 N. Lincoln Avenue Altadena, CA 91001, United States",34.1906504,-118.1587869
Altadena Street Closure,11/20/2025 | 9am - 12pm,2300 North Marengo Avenue,"Altadena, CA 91001, United States","2300 North Marengo Avenue Altadena, CA 91001, United States",34.1848173,-118.1439186
"Ananda Marga of L.A., Inc.",Friday 8:30am-10:30am,1245 S Norton Avenue,"Los Angeles, CA 90019, United States","1245 S Norton Avenue Los Angeles, CA 90019, United States",34.0483498,-118.32383
Ancon Club Los Angeles,2nd & 4th Saturday 10am-12pm,15307 Crenshaw Blvd,"Gardena, CA 90249, United States","15307 Crenshaw Blvd Gardena, CA 90249, United States",33.8921623,-118.3267772
Anointed To Minister Ministries,Friday 4pm - 6pm,169 W. Ave J - 5 #A,"Lancaster, CA 93534, United States","169 W. Ave J - 5 #A Lancaster, CA 93534, United States",34.6855142,-118.1323608
Answered Prayer Ministries,3rd Saturday 11am-3pm,6743 5th Ave,"Los Angeles, CA 90043, United States","6743 5th Ave Los Angeles, CA 90043, United States",33.9769677,-118.3228539
Antelope Valley Boys & Girls Club,Friday 10am-12pm,45404 Division St,"Lancaster, CA 93535, United States","45404 Division St Lancaster, CA 93535, United States",34.7071651,-118.1296214
Antelope Valley Partners for Health,2nd & 4th Friday 8 am - 11 am,858 W. Jackman Street,"Lancaster, CA 93534, United States","858 W. Jackman Street Lancaster, CA 93534, United States",34.7008519,-118.1465622
Arabic Evangelical Church,"1st and 3rd Sunday 1pm - 2pm, 1st and 3rd Friday 630pm 8pm",8109 Greenleaf Avenue,"Whittier, CA 90602, United States","8109 Greenleaf Avenue Whittier, CA 90602, United States",33.9666913,-118.0377675
Asian Youth Center,Tuesday & Thursday 8:30am-10:30am & 1st & 3rd Wednesday 8:30am-10:30am,100 Clary Avenue,"San Gabriel, CA 91776, United States","100 Clary Avenue San Gabriel, CA 91776, United States",34.0976005,-118.1002908
Assembly of God Of Hawthorne,"Sunday 1200pm - 130pm, Wednesday 730pm - 900pm",3841 W. 130th St.,"Hawthorne, CA 90250, United States","3841 W. 130th St. Hawthorne, CA 90250, United States",33.9150829,-118.3408985
Atheists United,3rd Friday 3:30pm - 5:30pm,2535 W. Temple St,"Los Angeles, CA 90026, United States","2535 W. Temple St Los Angeles, CA 90026, United States",34.072661,-118.274616
Atherton Baptist Church,2nd & 4th Saturday 10am-1pm,2627 W. 116th St,"Hawthorne, CA 90250, United States","2627 W. 116th St Hawthorne, CA 90250, United States",33.9289895,-118.3223126
Autistm Doesn't Define Me Academy,"Thursday10/02, 10/16, 11/05, 11/19  8am-11:30am and 1pm-3pm",10356 Wilmington Ave,"Los Angeles, CA 90002, United States","10356 Wilmington Ave Los Angeles, CA 90002, United States",33.9420897,-118.2388511
Baldwin Park Bilingual S.D.A. Church,1st & 3rd Wednesday 4pm - 7pm,13965 E. Ramona Parkway,"Baldwin Park, CA 91706, United States","13965 E. Ramona Parkway Baldwin Park, CA 91706, United States",34.0851569,-117.9695007
Belvedere Park,11/24/2025 | 9am - 12pm,210 North Mednik Avenue,"Los Angeles, CA 90022, United States","210 North Mednik Avenue Los Angeles, CA 90022, United States",34.0380982,-118.1617505
Belvue Presbyterian Church,4th Thursday 10 am - 11am,675 E. 118th Street,"Los Angeles, CA 90059, United States","675 E. 118th Street Los Angeles, CA 90059, United States",33.9267173,-118.2625438
Berean SDA Church,2nd and 4th Thursday 9:00 am - 12:00 pm,4211 W Adams Blvd,"Los Angeles, CA 90018, United States","4211 W Adams Blvd Los Angeles, CA 90018, United States",34.0329904,-118.3309846
Bethany Church,3rd Saturday 9am - 1030am,763 N. Sunset Ave,"West Covina, CA 91790, United States","763 N. Sunset Ave West Covina, CA 91790, United States",34.0856399,-117.9355181
Bethel Unspeakable Joy Christian Church,"2nd, 4th Saturday 8am - 10am",8724 S. Central Avenue,"Los Angeles, CA 90002, United States","8724 S. Central Avenue Los Angeles, CA 90002, United States",33.9585507,-118.2560928
Bethesda Temple Church,4th Saturday 9am - 12pm,4915 Crenshaw Boulevard,"Los Angeles, CA 90043, United States","4915 Crenshaw Boulevard Los Angeles, CA 90043, United States",33.9978521,-118.3313872
Blessed Sacrament Food Pantry,Saturday 9 am - 12 pm,6657 Sunset Blvd.,"Hollywood, CA 90028, United States","6657 Sunset Blvd. Hollywood, CA 90028, United States",34.0985459,-118.3351142
"Blue Shoes Adventure Kids, Inc.",Tuesday & Thursday 9am-10:30am,9843 Ramona St,"Bellflower, CA 90706, United States","9843 Ramona St Bellflower, CA 90706, United States",33.8735164,-118.1235536
Boulevard Community Church of Lancaster,2nd & 4th Saturday 9 am - 10 am,603 E. Lancaster Boulevard,"Lancaster, CA 93535, United States","603 E. Lancaster Boulevard Lancaster, CA 93535, United States",34.6971183,-118.1193987
Bread of Life Foursquare Gospel Church,Wednesday 11:30am-1:30pm,5175 1/2 W. Washington Blvd.,"Los Angeles, CA 90016, United States","5175 1/2 W. Washington Blvd. Los Angeles, CA 90016, United States",34.04144,-118.35338
Breath of Life S.D.A. Church,"1st, 3rd Thursday 12 pm - 2 pm",425 S. La Brea,"Inglewood, CA 90301, United States","425 S. La Brea Inglewood, CA 90301, United States",33.9582226,-118.3536542
Bryant Temple AME Church,"2nd, 4th Wednesday 10 am - 12 pm",2514 W. Vernon Ave,"Los Angeles, CA 90008, United States","2514 W. Vernon Ave Los Angeles, CA 90008, United States",34.0035421,-118.3208312
Buddhist Tzu Chi Foundation,4th Saturday 9:15 am - 10:30 am,1355 Broad Ave,"Wilmington, CA 90744, United States","1355 Broad Ave Wilmington, CA 90744, United States",33.790319,-118.2618976
Buddhist Tzu Chi Foundation,2nd Monday 9:30am - 10:30am,341 La Seda Road,"La Puente, CA 91744, United States","341 La Seda Road La Puente, CA 91744, United States",34.0126803,-117.8981696
Buddhist Tzu Chi Foundation,2nd Saturday 9am-11am,401 Corto Street,"Alhambra, CA 91801, United States","401 Corto Street Alhambra, CA 91801, United States",34.0907707,-118.1188971
Buddhist Tzu Chi Foundation,"3rd Saturday 9:30am-11am Closed November 15 Closed December 20th, Resumes January 17th",6720 Miles Ave,"Huntington Park, CA 90255, United States","6720 Miles Ave Huntington Park, CA 90255, United States",33.9779359,-118.2179399
"Building Plus Community Marketplace, Inc.","2nd, 4th Friday 10 am - 1 pm",1686 E. 103rd Street,"Los Angeles, CA 90002, United States","1686 E. 103rd Street Los Angeles, CA 90002, United States",33.9429531,-118.2430001
Burbank Temporary Aid Center,Monday - Friday 9 am - 12 pm,1304 W. Burbank Blvd.,"Burbank, CA 91506, United States","1304 W. Burbank Blvd. Burbank, CA 91506, United States",34.1825283,-118.3260722
California Hospital Medical Center Foundation,Monday - Friday 8 am - 4:30 pm,1600 S. Hope Street,"Los Angeles, CA 90015, United States","1600 S. Hope Street Los Angeles, CA 90015, United States",34.0360227,-118.2675112
California State University Dominguez Hills,Monday - Thursday 9am-1pm & 2pm-6pm & Friday 9am-1pm & 2pm-5pm,1000 E. Victoria Street,"Carson, CA 90747, United States","1000 E. Victoria Street Carson, CA 90747, United States",33.8633881,-118.2544095
Calvary Chapel Downey,"Mondays, Wednesday, Friday 10 am - 12 pm",12808 Woodruff Ave,"Downey, CA 90242, United States","12808 Woodruff Ave Downey, CA 90242, United States",33.9154542,-118.1155596
Calvary Light Christian Center,Wednesday 9am-10:30am,1101 N. Lakme Ave,"Wilmington, CA 90744, United States","1101 N. Lakme Ave Wilmington, CA 90744, United States",33.7708409,-118.2591073
Calvary Presbyterian Church,1st Saturday 8 am - 11 am,13560 Hawthorne Boulevard,"Hawthorne, CA 90250, United States","13560 Hawthorne Boulevard Hawthorne, CA 90250, United States",33.9088684,-118.3519358
Carson Christian Reaching Out,1st & 3rd Saturday 10am-1pm,17705 Central Ave,"Carson, CA 90746, United States","17705 Central Ave Carson, CA 90746, United States",33.8704351,-118.2491451
Carson Hope Community Church,Friday 9:30 am - 2 pm,129 E. 223rd Street,"Carson, CA 90745, United States","129 E. 223rd Street Carson, CA 90745, United States",33.8244847,-118.2749375
Catholic Charities,"Monday - Friday 9am-12pm & Monday, Tuesday, & Friday 1 pm - 4 pm",4171 Tyler Avenue,"El Monte, CA 91731, United States","4171 Tyler Avenue El Monte, CA 91731, United States",34.0827868,-118.0319082
Catholic Charities - Brownson House,Monday - Friday 9 am - 12:30pm,1307 Warren Street,"Los Angeles, CA 90033, United States","1307 Warren Street Los Angeles, CA 90033, United States",34.0520689,-118.2201788
Catholic Charities of Long Beach,Tuesday & Thursday 9:30 am - 12 pm & 1:30 pm - 3 pm,123 E. 14th Street,"Long Beach, CA 90813, United States","123 E. 14th Street Long Beach, CA 90813, United States",33.784066,-118.1916422
Catholic Rainbow Outreach,Tuesday - Friday 11am-12pm & Saturday 10:30am-11:30am,11419 Carmenita Road,"Whittier, CA 90605, United States","11419 Carmenita Road Whittier, CA 90605, United States",33.9277486,-118.0469897
"Celebration Nation, Inc.",2nd & 4th Wednesday 12pm-2pm,3540 N. Mission Rd.,"Los Angeles, CA 90031, United States","3540 N. Mission Rd. Los Angeles, CA 90031, United States",34.0667897,-118.2025122
Central Baptist Church,3rd Saturday 8am-10am,1641 E. Carson Street,"Carson, CA 90745, United States","1641 E. Carson Street Carson, CA 90745, United States",33.8322979,-118.2428859
Central City Neighborhood Partners,Monday 2pm-5pm,501 S. Bixel Street,"Los Angeles, CA 90017, United States","501 S. Bixel Street Los Angeles, CA 90017, United States",34.0548809,-118.2618214
Central Filipino S.D.A. Church,Thurday 9am-12pm,777 Colorado Boulevard,"Los Angeles, CA 90041, United States","777 Colorado Boulevard Los Angeles, CA 90041, United States",34.1411218,-118.1829591
Central Lutheran Church,Monday 1 pm - 3 pm,6425 Tyrone Ave,"Van Nuys, CA 91401, United States","6425 Tyrone Ave Van Nuys, CA 91401, United States",34.1871307,-118.4446209
Central Spanish SDA Church,2nd & 4th Saturday 12pm-5pm,1366 S. Alvarado St,"Los Angeles, CA 90006, United States","1366 S. Alvarado St Los Angeles, CA 90006, United States",34.0456367,-118.2834725
Centro Cristiano Manantial de vida,1st & 2nd Monday 5pm - 7pm,10035 Washington Street,"Bellflower, CA 90706, United States","10035 Washington Street Bellflower, CA 90706, United States",33.8986363,-118.1203988
Centro de Vida International Church Movement,"Wednesday 10/08, 10/22, 11/05, 11/19, 12/03, 12/17  9am - 12pm",9251 Burnet Avenue,"North Hills, CA 91343, United States","9251 Burnet Avenue North Hills, CA 91343, United States",34.2387872,-118.4636146
Cerritos College Foundation,Monday - Friday 8 am - 4 pm,11110 Alondra Blvd,"Norwalk, CA 90650, United States","11110 Alondra Blvd Norwalk, CA 90650, United States",33.8844435,-118.0952808
Cerritos College MFP,4th Wednesday 9am-11am,11110 Alondra Blvd,"Norwalk, CA 90650, United States","11110 Alondra Blvd Norwalk, CA 90650, United States",33.8844435,-118.0952808
Champions of Caring Connections,2nd Saturday 10am-12pm,1019 N. Harris Ave,"Compton, CA 90221, United States","1019 N. Harris Ave Compton, CA 90221, United States",33.90282,-118.1996393
Champions of Caring Connections,1st Saturday 10am-12pm,8204 S. Avalon Blvd,"Los Angeles, CA 90003, United States","8204 S. Avalon Blvd Los Angeles, CA 90003, United States",33.9645348,-118.2648592
Champions of Caring Connections,2nd Saturday 10am-12pm,1601 E. Alondra Blvd,"Compton, CA 90221, United States","1601 E. Alondra Blvd Compton, CA 90221, United States",33.889095,-118.2048667
Champions of Caring Connections,1st Saturday 10am-12pm,11205 S. Vermont Ave,"Los Angeles, CA 90044, United States","11205 S. Vermont Ave Los Angeles, CA 90044, United States",33.9326503,-118.2921992
Chapel of Peace Lutheran Church,3rd Saturday 9am - 12pm CLOSED 11/15 OPEN 11/22,1009 N. Market Street,"Inglewood, CA 90302, United States","1009 N. Market Street Inglewood, CA 90302, United States",33.9769244,-118.3570567
Chapter Two Inc,Wednesday 11 am - 3 pm,10127 S. Avalon Blvd,"Los Angeles, CA 90003, United States","10127 S. Avalon Blvd Los Angeles, CA 90003, United States",33.9438975,-118.2654972
Chapter Two Inc,Thursday 11am-2p,1535 W. 62nd Street,"Los Angeles, CA 90047, United States","1535 W. 62nd Street Los Angeles, CA 90047, United States",33.9835432,-118.3038059
Children's Hospital Los Angeles,Wednesday 10am - 11am,3250 Wilshire Blvd Suite 300,"Los Angeles, CA 90027, United States","3250 Wilshire Blvd Suite 300 Los Angeles, CA 90027, United States",34.0609334,-118.2930488
Chinese Community Service Center,1st Monday 9am- 12pm & 3rd Friday 9am-12pm,"1725 Beverly Boulevard, Suite 1 - B","Los Angeles, CA 90026, United States","1725 Beverly Boulevard, Suite 1 - B Los Angeles, CA 90026, United States",34.0653471,-118.2665269
Christ Apostole Church of America,2nd and 4th Saturday 10am-12pm,6625 4th Ave,"Los Angeles, CA 90043, United States","6625 4th Ave Los Angeles, CA 90043, United States",33.9783443,-118.3218613
Christ Gospel Prayer Center,Wednesdays 11am-1:30pm,4702 S Vermont Avenue,"Los Angeles, CA 90037, United States","4702 S Vermont Avenue Los Angeles, CA 90037, United States",34.0003702,-118.2913325
Christ Living Gospel,1st and 3rd Saturday 8:30am - 12pm,2221 Workman St.,"Los Angeles, CA 90031, United States","2221 Workman St. Los Angeles, CA 90031, United States",34.0713959,-118.2145619
Christ Living Gospel,1st and 3rd Saturday 8:30am - 12pm,5466 Huntington Drive South,"Los Angeles, CA 90032, United States","5466 Huntington Drive South Los Angeles, CA 90032, United States",34.0923127,-118.1615468
Christ Our Shepherd Church,Wednesday 10am - 3pm,3571 Eagle Rock Blvd,"Los Angeles, CA 90065, United States","3571 Eagle Rock Blvd Los Angeles, CA 90065, United States",34.1172872,-118.2349981
Christ the Good Shepherd Episcopal,4th Friday 9am - 11am,3303 W. Vernon Avenue,"Los Angeles, CA 90008, United States","3303 W. Vernon Avenue Los Angeles, CA 90008, United States",34.0041928,-118.3296247
Christ the Savior American Coptic Orthodox Church,2nd & 4th Friday 5 pm - 7 pm,10347 Mason Ave,"Chatsworth, CA 91311, United States","10347 Mason Ave Chatsworth, CA 91311, United States",34.2585965,-118.5802019
Christian Outreach in Action,Monday-Friday 10am - 12pm,515 E. 3rd St.,"Long Beach, CA 90802, United States","515 E. 3rd St. Long Beach, CA 90802, United States",33.7707206,-118.186108
Christys Foundation,Thursdays 10 am - 2 pm OPEN 11/26 CANCELED 11/27,9301 Tampa Ave Unit 46,"Northridge, CA 91324, United States","9301 Tampa Ave Unit 46 Northridge, CA 91324, United States",34.239887,-118.5563135
Church of the Nazarene - Rosemead,3rd Saturday 930am - 11am,2703 Walnut Grove Avenue,"Rosemead, CA 91770, United States","2703 Walnut Grove Avenue Rosemead, CA 91770, United States",34.0610393,-118.0823061
Church of the Redeemer,Monday - Friday 9am - 12pm & Last Thursday 6pm-7:30pm,3739 N. Monterey Avenue,"Baldwin Park, CA 91706, United States","3739 N. Monterey Avenue Baldwin Park, CA 91706, United States",34.0803117,-117.9766542
Church of the Valley,Tuesday 930am - 12pm,6565 Vesper Blvd,"Van Nuys, CA 91411, United States","6565 Vesper Blvd Van Nuys, CA 91411, United States",34.1900109,-118.4512201
Church on the Way,11/20/2025 | 9am - 12pm,14300 Sherman Way,"Van Nuys, CA 91405, United States","14300 Sherman Way Van Nuys, CA 91405, United States",34.2007633,-118.4449774
Citrus College,1st Monday 1pm - 3pm,1000 W. Foothill Boulevard,"Glendora, CA 91741, United States","1000 W. Foothill Boulevard Glendora, CA 91741, United States",34.1355407,-117.8849584
City of Bell Gardens,3rd Saturday 10AM-1PM CLOSED 11/15 Open 11/22,6662 Loveland St.,"Bell Gardens, CA 90201, United States","6662 Loveland St. Bell Gardens, CA 90201, United States",33.9669892,-118.1469086
City of Commerce,3rd Thursday 10:30am - 1pm,5625 Jillson Street,"Commerce, CA 90040, United States","5625 Jillson Street Commerce, CA 90040, United States",34.0009006,-118.1575602
City of Cudahy,4th Thursday 9am-11am,4835 Clara St,"Cudahy, CA 90201, United States","4835 Clara St Cudahy, CA 90201, United States",33.9658212,-118.1810626
City of El Monte,Monday- Friday 2pm-8pm & Saturday 12pm-5pm,3125 Tyler Avenue,"El Monte, CA 91731, United States","3125 Tyler Avenue El Monte, CA 91731, United States",34.0658568,-118.0365395
City of El Monte,Monday- Friday 2pm-8pm & Saturday 12pm-5pm,11431 McGirk Street,"El Monte, CA 91731, United States","11431 McGirk Street El Monte, CA 91731, United States",34.0854021,-118.0197066
City of El Monte,Monday- Friday 2pm-8pm & Saturday 12pm-5pm,12127 Elliott Ave,"El Monte, CA 91731, United States","12127 Elliott Ave El Monte, CA 91731, United States",34.0560071,-118.0219023
City of El Monte,Monday- Friday 2pm-8pm & Saturday 12pm-5pm,4140 Gibson Road,"El Monte, CA 91731, United States","4140 Gibson Road El Monte, CA 91731, United States",34.081578,-118.0487973
City of El Monte,Monday- Friday 12:30pm-1:30pm,3120 Tyler Ave,"El Monte, CA 91731, United States","3120 Tyler Ave El Monte, CA 91731, United States",34.0655953,-118.0353615
City of Hawaiian Gardens,3rd Thursday 330 - 430pm,21815 Pioneer Blvd,"Hawaiian Gardens, CA 90716, United States","21815 Pioneer Blvd Hawaiian Gardens, CA 90716, United States",33.8288517,-118.0822915
City of Maywood,3rd Monday 9 am - 11am,4801 E. 58th St.,"Maywood, CA 90270, United States","4801 E. 58th St. Maywood, CA 90270, United States",33.9875724,-118.1781878
City of Norwalk/Department of Social Services,"Tuesdays & Thursdays 9am- 12pm, 1pm - 5pm",11929 Alondra Blvd,"Norwalk, CA 90650, United States","11929 Alondra Blvd Norwalk, CA 90650, United States",33.88792,-118.0789133
Clara Street Park MFP,2nd Thursday 9am-11am,4835 Clara St.,"Cudahy, CA 90201, United States","4835 Clara St. Cudahy, CA 90201, United States",33.9658212,-118.1810626
Community Chapel World Outreach,Monday- Friday 12pm - 1pm Closed on all federal & state holidays,12400 Studebaker Rd,"Norwalk, CA 90650, United States","12400 Studebaker Rd Norwalk, CA 90650, United States",33.9187103,-118.0988257
Community Missionary Baptist,Wednesday 10am-12pm,14637 S. Bahama Street,"Compton, CA 90220, United States","14637 S. Bahama Street Compton, CA 90220, United States",33.8987534,-118.2534177
Community of Faith Bible Church,2nd & 4th Sunday 1pm-3pm,12025 Industrial Ave,"South Gate, CA 90280, united States","12025 Industrial Ave South Gate, CA 90280, united States",33.9174449,-118.1643962
Community's Child,Thursday 3:30pm - 5pm,612 W. E Street,"Wilmington, CA 90744, United States","612 W. E Street Wilmington, CA 90744, United States",33.7744529,-118.2695412
Community's Child,Wednesday 10AM-12 PM,18807 Crenshaw Pl,"Torrance, CA 90504, United States","18807 Crenshaw Pl Torrance, CA 90504, United States",33.8592362,-118.3266496
Community's Child,Monday - Thursday 10am-4pm,111 Figueroa Pl,"Wilmington, CA 90744, United States","111 Figueroa Pl Wilmington, CA 90744, United States",33.7763943,-118.2804577
Community's Child - Switzer Learning Center,Thursday 1:45pm-3:15pm,2201 Amapola Ct,"Torrance, CA 90501, United States","2201 Amapola Ct Torrance, CA 90501, United States",33.8447536,-118.3225127
"Compatior, Inc",4th Wednesday 10am - 6pm,4363 Tweedy Blvd,"South Gate, CA 90280, United States","4363 Tweedy Blvd South Gate, CA 90280, United States",33.9432088,-118.1952428
Compton College MFP,2nd Tuesday 1pm-3pm,1111 E. Artesia Blvd,"Compton, CA 90221, United States","1111 E. Artesia Blvd Compton, CA 90221, United States",33.8774581,-118.2110327
CONASUPO,Saturday 10am-12pm,3283 Garfield Ave,"Commerce, CA 90040, United States","3283 Garfield Ave Commerce, CA 90040, United States",33.9856987,-118.1400262
Congregational Church of Chatsworth - FISH of West,"Wednesdays from 2-4pm, Saturdays from 1-3:30pm",20440 Lassen St.,"Chatsworth, CA 91311, United States","20440 Lassen St. Chatsworth, CA 91311, United States",34.2495989,-118.5788799
Cover the Homeless Ministry,Last Thursday of the month 12pm - 1pm,4425 South Central Avenue,"Los Angeles, CA 90011, United States","4425 South Central Avenue Los Angeles, CA 90011, United States",34.003116,-118.2567737
Crenshaw Baptist Church of Torrance,2nd Wednesday 9am-11am,18749 Crenshaw Blvd,"Torrance, CA 90504, United States","18749 Crenshaw Blvd Torrance, CA 90504, United States",33.8600152,-118.3273172
Crete Academy,1st and 3rd Friday 3:30 pm - 5:30 pm,6103 Crenshaw Blvd,"Los Angeles, CA 90043, United States","6103 Crenshaw Blvd Los Angeles, CA 90043, United States",33.9844793,-118.3313125
Crossroads Church First Assembly,1st Saturday 10am - 12pm & 3rd Saturday 9am 12pm,1900 E. South Street,"Long Beach, CA 90805, United States","1900 E. South Street Long Beach, CA 90805, United States",33.8599098,-118.1692711
Crossroads Multinational Church of the Nazarene,Sunday 8:30am - 9:30am,12229 E. Delamo Blvd,"Cerritos, CA 90703, United States","12229 E. Delamo Blvd Cerritos, CA 90703, United States",33.8466462,-118.0711152
Crusaders Temple Church of God In Christ,3rd Friday 9:30am-12:30pm,9100 Hooper Ave,"Los Angeles, CA 90002, United States","9100 Hooper Ave Los Angeles, CA 90002, United States",33.9537572,-118.2537018
Del Aire Baptist Church,Tuesday 1pm-3pm / Friday 2pm-4pm /& Saturday 9am-11am,4951 W. 119th Place,"Hawthorne, CA 90250, United States","4951 W. 119th Place Hawthorne, CA 90250, United States",33.924772,-118.3653948
Desert Reign,"Wednesdays 9 am - 11 am, 11/12, 11/25, CLOSED 11/26, 12/10, 12/23, CLOSED 12/24",11610 Lakewood Blvd,"Downey, CA 90241, United States","11610 Lakewood Blvd Downey, CA 90241, United States",33.9312371,-118.1258398
Desert Vineyard Christian Fellowship,Wednesday 11 am - 2 pm,1011 East Ave I,"Lancaster, CA 93535, United States","1011 East Ave I Lancaster, CA 93535, United States",34.7046416,-118.1111706
Designated Exceptional Service for Independence,Wednesday 10am - 12pm &  Friday 10:30am - 12pm,646 S. Atlantic Blvd.,"Los Angeles, CA 90022, United States","646 S. Atlantic Blvd. Los Angeles, CA 90022, United States",34.0235037,-118.1560236
Destiny Praise Worship Center,3rd Saturday 10 am-12 pm,5115 Atlantic Ave,"Long Beach, CA 90805, United States","5115 Atlantic Ave Long Beach, CA 90805, United States",33.8491242,-118.1852309
Detours Mentoring Group. Inc.,4th Saturday 12pm-2pm,1202 West 135th St,"Gardena, CA 90247, United States","1202 West 135th St Gardena, CA 90247, United States",33.9089897,-118.296681
Dominion International Center,2nd & 3rd Saturday 10am-11am,"16630 S. Broadway, Suite B.","Gardena, CA 90248, United States","16630 S. Broadway, Suite B. Gardena, CA 90248, United States",33.8799034,-118.2775986
Door of Hope Ministries,Monday & Thursday 9am - 11am,1325 S. Atlantic Blvd,"Los Angeles, CA 90022, United States","1325 S. Atlantic Blvd Los Angeles, CA 90022, United States",34.0133669,-118.1597292
"Door to Door II, Inc.",1st and 3rd Thursday 1pm - 3pm,2405 W. Florence Avenue,"Los Angeles, CA 90043, United States","2405 W. Florence Avenue Los Angeles, CA 90043, United States",33.9747987,-118.319998
Downey First Christian Church,Saturday 900am - 1200pm,10909 New St.,"Downey, CA 90241, United States","10909 New St. Downey, CA 90241, United States",33.943067,-118.1326577
Dream City Church Whittier,Saturday 11 am - 1 pm,8434 S. Greenleaf Avenue,"Whittier, CA 90602, United States","8434 S. Greenleaf Avenue Whittier, CA 90602, United States",33.9627584,-118.0394864
Duarte Church of Christ,1st & 3rd Tuesday 10:30am-1pm,1330 S. Highland Ave,"Duarte, CA 91010, United States","1330 S. Highland Ave Duarte, CA 91010, United States",34.1376796,-117.9659952
Eagle Rock Lutheran Church,2nd & 4th Saturday 10:30 AM - 12 PM,5032 N Maywood ave,"Los Angeles, CA 90041, United States","5032 N Maywood ave Los Angeles, CA 90041, United States",34.1371815,-118.2113164
East L.A. Bilingual S.D.A. Church,Wednesday 2 - 4pm,700 Hoefner Avenue,"Los Angeles, CA 90022, United States","700 Hoefner Avenue Los Angeles, CA 90022, United States",34.0209416,-118.1494151
East LA Community Corporation,3rd Tuesday 9am-11am,611 South Lorena St.,"Los Angeles, CA 90023, United States","611 South Lorena St. Los Angeles, CA 90023, United States",34.031107,-118.1999823
Eastmont Community Center,Tuesday 8:30 AM - 10 AM,701 Hoefner Avenue,"Los Angeles, CA 90022, United States","701 Hoefner Avenue Los Angeles, CA 90022, United States",34.0210131,-118.1501655
Eastmont S.D.A. Spanish Church,Monday 6:00pm - 7:30pm,1021 Westside Drive,"Los Angeles, CA 90022, United States","1021 Westside Drive Los Angeles, CA 90022, United States",34.0137182,-118.1376601
Education & Economic Development Community Center,3rd Saturday 11am-2pm,8204 S. Avalon Blvd,"Los Angeles, CA 90003, United States","8204 S. Avalon Blvd Los Angeles, CA 90003, United States",33.9645348,-118.2648592
El Camino Community College District Foundation,Tuesday 12pm-5pm Wednesday & Thursday 10am-3pm,16007 Crenshaw Blvd.,"Torrance, CA 90506, United States","16007 Crenshaw Blvd. Torrance, CA 90506, United States",33.8835254,-118.3321158
El Hajj Malik Shabazz Islamic Center,2nd & 4th Friday 2pm-3:30pm,2914 W. Jefferson Blvd,"Los Angeles, CA 90018, United States","2914 W. Jefferson Blvd Los Angeles, CA 90018, United States",34.0254205,-118.3277412
El Monte Wesleyan Christian Church,"1st & 3rd Tuesday 11am- 12:30pm, 11/4  2 pm - 3 pm",2400 Santa Anita Avenue,"South El Monte, CA 91733, United States","2400 Santa Anita Avenue South El Monte, CA 91733, United States",34.0562594,-118.0420711
El Monte/South El Monte Emergency Resource Association,Monday - Friday 11:30 am - 1 pm,10900 Mulhall Street,"South El Monte, CA 91731, United States","10900 Mulhall Street South El Monte, CA 91731, United States",34.0887718,-118.0297671
El Santo Nino Community Center,2nd & 4th Wednesday 1pm-2:30pm,601 E. 23rd St,"Los Angeles, CA 90011, United States","601 E. 23rd St Los Angeles, CA 90011, United States",34.0251492,-118.2614856
El Sereno Spanish S.D.A. Church,Sundays 8am-10am,3304 N Eastern Ave,"Los Angeles, CA 90032, United States","3304 N Eastern Ave Los Angeles, CA 90032, United States",34.0836448,-118.1777287
Eliza Shanks Homes. Inc.,Monday - Friday 9am - 5pm,13055 Weidner Street,"Pacoima, CA 91331, United States","13055 Weidner Street Pacoima, CA 91331, United States",34.2772231,-118.4174074
Emmanuel Covenant Church of Northridge,Tuesday 11:30am-1pm & Friday 12pm-2pm,17645 Saticoy St,"Northridge, CA 91325, United States","17645 Saticoy St Northridge, CA 91325, United States",34.2088163,-118.5180987
Encounter Community Church,2nd Wednesday 9am - 11am,18749 Crenshaw Boulevard,"Torrance, CA 90504, United States","18749 Crenshaw Boulevard Torrance, CA 90504, United States",33.8600152,-118.3273172
Ephesus S.D.A. Church,"Wednesday 10am - 11 am  &  4th Thursday 11am - 2pm  OPEN November 20 CLOSED November 27, OPEN December 11 CLOSED December 25",7005 S. Western Avenue,"Los Angeles, CA 90047, United States","7005 S. Western Avenue Los Angeles, CA 90047, United States",33.9759737,-118.3092595
Esmirna Pentecostal Church,Friday 10am-1pm,5414 N. Figueroa Street,"Los Angeles, CA 90042, United States","5414 N. Figueroa Street Los Angeles, CA 90042, United States",34.1072122,-118.196612
Estrella Del Mar de L.A. (Regis House CoMun,2nd and 4th Wednesday 10am - 11am,2212 Beverly Boulevard,"Los Angeles, CA 90057, United States","2212 Beverly Boulevard Los Angeles, CA 90057, United States",34.0670916,-118.271985
Faith Baptist Fellowship of Long Beach,2nd Saturday 10am - 1pm,2155 Atlantic Avenue,"Long Beach, CA 90806, United States","2155 Atlantic Avenue Long Beach, CA 90806, United States",33.7963304,-118.1853353
Faithful Walk Ministries,3rd Saturday 11am-1pm,6125  S. San Pedro Street,"Los Angeles, CA 90003, United States","6125  S. San Pedro Street Los Angeles, CA 90003, United States",33.9835,-118.269861
Family Health Care Centers of Greater Los Angeles,3rd Wednesday 9 am- 11 am,6501 S. Garfield Ave,"Bell Gardens, CA 90201, United States","6501 S. Garfield Ave Bell Gardens, CA 90201, United States",33.9729696,-118.1478791
Family Health Care Resources,Friday 9 am - 3 pm,3444 Whitter Blvd.,"Los Angeles, CA 90023, United States","3444 Whitter Blvd. Los Angeles, CA 90023, United States",34.0269402,-118.199737
Family Life Center Apostolic Church,Thursday 9am - 11am,7435 Norwalk Blvd.,"Whittier, CA 90606, United States","7435 Norwalk Blvd. Whittier, CA 90606, United States",33.9787859,-118.0768676
Family Mennonite Church,2nd Saturday 9am - 11am,6520 S. Normandie Avenue,"Los Angeles, CA 90044, United States","6520 S. Normandie Avenue Los Angeles, CA 90044, United States",33.9799791,-118.2999374
Feed My Sheep Christian Fellowship,2nd and 4th Friday 10am-1pm,1305 E. Compton Blvd,"Compton, CA 90221, United States","1305 E. Compton Blvd Compton, CA 90221, United States",33.8961999,-118.2092442
Fifty-fourth Street S.D.A. Church,2nd & 4th Saturday 2:30pm-3:30pm,1973 West 54th Street,"Los Angeles, CA 90062, United States","1973 West 54th Street Los Angeles, CA 90062, United States",33.993557,-118.313484
Figueroa Church of Christ,Tuesday & Thursday 7:30am - 9 am,455 W. 57th St.,"Los Angeles, CA 90037, United States","455 W. 57th St. Los Angeles, CA 90037, United States",33.9908584,-118.282171
Filipino Christian Church,2nd & 4th Saturday 10am - 11am,301 N. Union Avenue,"Los Angeles, CA 90026, United States","301 N. Union Avenue Los Angeles, CA 90026, United States",34.067609,-118.264533
Finger of God Goodnews Ministry,2nd & 4th Saturday 10AM - 12 PM,21919 S. Figueroa Street,"Carson, CA 90745, United States","21919 S. Figueroa Street Carson, CA 90745, United States",33.8283762,-118.286487
First African Methodist Episcopal Church,4th Saturday 9am - 12pm,2270 S. Harvard Boulevard,"Los Angeles, CA 90018, United States","2270 S. Harvard Boulevard Los Angeles, CA 90018, United States",34.0344884,-118.3063515
First Baptist Church of Alhambra,"2nd , 4th Thursday 11 am - 12 pm",101 S. Atlantic Blvd.,"Alhambra, CA 91801, United States","101 S. Atlantic Blvd. Alhambra, CA 91801, United States",34.0898709,-118.1352798
First Christian Church Wilmington,4th Saturday 9am-10am,444 E. Lomita Blvd,"Wilmington, CA 90744, United States","444 E. Lomita Blvd Wilmington, CA 90744, United States",33.7985372,-118.2666529
First Church of the Nazarene - Pasadena,Wednesday 9am - 12pm,3700 E. Sierra Madre Boulevard,"Pasadena, CA 91107, United States","3700 E. Sierra Madre Boulevard Pasadena, CA 91107, United States",34.1602421,-118.0745907
First Lutheran Church of Inglewood,"Wednesday 10 am - 12 pm , Saturday 9 am - 12 pm",600 West Queen Street,"Inglewood, CA 90301, United States","600 West Queen Street Inglewood, CA 90301, United States",33.9624112,-118.3666276
First Missionary Baptist Church,2nd and 4th Thursday 11am - 12:30pm,37721 N. 100th Street E.,"Littlerock, CA 93543, United States","37721 N. 100th Street E. Littlerock, CA 93543, United States",34.5678245,-117.9526445
First New Christian Fellowship,Wednesday 2pm- 4pm; Thursday 9 - 11am,1555 W. 108th Street,"Los Angeles, CA 90047, United States","1555 W. 108th Street Los Angeles, CA 90047, United States",33.9383978,-118.304557
First Presbyterian Church,"1st & 3rd Saturday 9am-11am CLOSED November 15, OPEN November 22 1 pm - 3pm",1809 West Boulevard,"Los Angeles, CA 90019, United States","1809 West Boulevard Los Angeles, CA 90019, United States",34.0406344,-118.3372
First Southern Baptist Church of Hollywood,"Mondays 9:30am-while supplies last, Fridays 4pm-7pm (or while supplies last)",1528 N. Wilton Place,"Hollywood, CA 90028, United States","1528 N. Wilton Place Hollywood, CA 90028, United States",34.0991288,-118.3133707
First Unitarian Church,Saturday 7am - 9:30am,2936 W. 8th Street,"Los Angeles, CA 90005, United States","2936 W. 8th Street Los Angeles, CA 90005, United States",34.0573803,-118.2902094
First United Church of Reseda,Wednesday 1pm - 3pm,18120 Saticoy St,"Reseda, CA 91335, United States","18120 Saticoy St Reseda, CA 91335, United States",34.2080804,-118.5279552
First United Methodist Church of La Puente,2nd Tuesday 10am - 12:30 PM & Last Sunday 10am - 12:30 PM,15701 E. Hill Street,"La Puente, CA 91744, United States","15701 E. Hill Street La Puente, CA 91744, United States",34.026403,-117.9507813
First United Methodist Church of Montebello,1st and 3rd Saturday 12pm - 3pm,1220 W. Whittier Blvd,"Montebello, CA 90640, United States","1220 W. Whittier Blvd Montebello, CA 90640, United States",34.0117663,-118.1134715
FMBC-Helping Hands,Wednesday 10am-12pm,1300 E. 57th Street,"Los Angeles, CA 90011, United States","1300 E. 57th Street Los Angeles, CA 90011, United States",33.9908369,-118.2518864
Focus SoCal,2nd & 4th Saturday 10am-12pm Except in April will be the 1st & 4th,2300 W. 3rd St,"Los Angeles, CA 90057, United States","2300 W. 3rd St Los Angeles, CA 90057, United States",34.063654,-118.2751845
Food on Foot,Sunday's 1pm-3:45pm,1625 Schrader Blvd,"Los Angeles, CA 90028, United States","1625 Schrader Blvd Los Angeles, CA 90028, United States",34.1005519,-118.3327323
Foothill Unity Center,"Monday, Wednesday, Friday 9am-1130am",790 W. Chestnut Avenue,"Monrovia, CA 91016, United States","790 W. Chestnut Avenue Monrovia, CA 91016, United States",34.1422118,-118.0157726
Foothill Unity Center,"Tuesday, Wednesday, Friday 9 am - 11:30 am",191 N. Oak Avenue,"Pasadena, CA 91107, United States","191 N. Oak Avenue Pasadena, CA 91107, United States",34.1497175,-118.107833
For the Love of Our Veterans,Saturday 12pm-3pm & 4th Sunday 12pm-1pm,601 W Rosecrans,"Los Angeles, CA 90222, United States","601 W Rosecrans Los Angeles, CA 90222, United States",33.9035532,-118.234499
Freedom Church,Wednesday 9 am - 11 am,9200 Owensmouth Ave,"Chatsworth, CA 91311, United States","9200 Owensmouth Ave Chatsworth, CA 91311, United States",34.2372164,-118.6014079
Freedom of Spirit Church,1st & 3rd Friday 11:30am-1pm,6010 S. Broadway,"Los Angeles, CA 90003, United States","6010 S. Broadway Los Angeles, CA 90003, United States",33.9847268,-118.2780143
Fresh Anointing C.O.G.I.C.,Tuesday 10am-12pm,9020 Imperial Hwy,"Downey, CA 90242, United States","9020 Imperial Hwy Downey, CA 90242, United States",33.9167033,-118.1365212
Friends In Deed,"Tuesday, Wednesday 10 am - 3 pm & Thursday 10 am - 1 pm",444 E. Washing - n Boulevard,"Pasadena, CA 91104, United States","444 E. Washing - n Boulevard Pasadena, CA 91104, United States",34.1687084,-118.1413204
Gabrieleno-Tongva Tribal Council,1st & 3rd Friday 3 pm - 4 pm,203 E. Mission Rd,"San Gabriel, CA 91776, United States","203 E. Mission Rd San Gabriel, CA 91776, United States",34.0937662,-118.0981572
Gardena S.D.A. Church,1st & 3rd Saturday 12pm-3pm,16113 S. Denker Avenue,"Gardena, CA 90247, United States","16113 S. Denker Avenue Gardena, CA 90247, United States",33.8844806,-118.3047326
Gardena Valley Assembly of God,Sunday 12:30 pm - 1:30 pm,1473 W. 182nd Street,"Gardena, CA 90248, United States","1473 W. 182nd Street Gardena, CA 90248, United States",33.8660981,-118.3020668
Glassell Park S.D.A Church,3rd Saturday 2 pm - 4 pm,1500 N. Ave 53,"Los Angeles, CA 90042, United States","1500 N. Ave 53 Los Angeles, CA 90042, United States",34.1213034,-118.2000192
Glendale Central Spanish S.D.A. Church,"2nd, 4th Wednesday 3pm - 5pm",901 E. Broadway,"Glendale, CA 91205, United States","901 E. Broadway Glendale, CA 91205, United States",34.1465005,-118.243964
Glendale Community College - Garfield Campus,1st Friday 1pm-3pm,1122 E Garfield Ave,"Glendale, CA 91205, United States","1122 E Garfield Ave Glendale, CA 91205, United States",34.1357212,-118.2407844
Glendale Community College - Verdugo Campus,1st Wednesday 1pm-3pm,1500 N Verdugo Rd,"Glendale, CA 91208, United States","1500 N Verdugo Rd Glendale, CA 91208, United States",34.1673571,-118.2277571
God's Glorious Praise Ministries,Saturday 10am - 1pm,17808 Sierra Highway,"Canyon Country, CA 91387, United States","17808 Sierra Highway Canyon Country, CA 91387, United States",34.4267054,-118.4469448
God's Pantry,4th Saturday 8 am - 10 am,710 N. Lark Ellen Ave,"West Covina, CA 91791, United States","710 N. Lark Ellen Ave West Covina, CA 91791, United States",34.0836196,-117.9161736
Gods Divine Center Holiness Deliverance Church,2nd Friday 10am - 1pm,525 East 55th Street,"Long Beach, CA 90805, United States","525 East 55th Street Long Beach, CA 90805, United States",33.8563348,-118.185329
Gods Pantry,3rd Friday 9am-11am,1040 E. Gladstone St.,"Azusa, CA 91702, United States","1040 E. Gladstone St. Azusa, CA 91702, United States",34.11371,-117.8867828
Gods Pantry,Wednesday 1:00 pm - 3:30pm,250 East Center St,"Pomona, CA 91767, United States","250 East Center St Pomona, CA 91767, United States",34.0612469,-117.7468208
Good News Prayer Center,3rd Saturday 9 am - 12 pm,8010 Figueroa St.,"Los Angeles, CA 90003, United States","8010 Figueroa St. Los Angeles, CA 90003, United States",33.9664879,-118.2824536
Good Sam Pantry/Beatitudes of our Lord,Thursday 4:30 pm - 5:30 pm,13013 Santa Gertrudes Ave.,"La Mirada, CA 90638, United States","13013 Santa Gertrudes Ave. La Mirada, CA 90638, United States",33.9127709,-117.9947963
Good Shepherd Center (Catholic Charities of L.A.),Monday & Wednesday 9am-12pm,267 N Belmont Ave,"Los Angeles, CA 90026, United States","267 N Belmont Ave Los Angeles, CA 90026, United States",34.0666278,-118.2635801
Good Shepherd Lutheran Church,Sunday 8:30am-9:30am & 2nd & 4th Sunday 11am-12:30pm,1350 W. 25th St,"San Pedro, CA 90732, United States","1350 W. 25th St San Pedro, CA 90732, United States",33.7223884,-118.3069247
Gospel Mission Baptist Church,Wednesday 11 am - 12 pm & 6:15 pm - 6:45 pm,7301 S. Avalon Boulevard,"Los Angeles, CA 90003, United States","7301 S. Avalon Boulevard Los Angeles, CA 90003, United States",33.9735906,-118.2655068
Grace Evangelical Free Church of La Mirada,Friday 1pm - 5pm,12717 Santa Gertrudes Avenue,"La Mirada, CA 90638, United States","12717 Santa Gertrudes Avenue La Mirada, CA 90638, United States",33.9157395,-117.9953692
Grace Memorial,2nd & 4th Saturday 9am-10am,1021 E. 19th Street,"Long Beach, CA 90806, United States","1021 E. 19th Street Long Beach, CA 90806, United States",33.7913988,-118.1803542
"Grace Resource Center, Inc.","Tuesday, Wednesday & Thursday Walk Ups 10:15am - 12pm & Drive Through Tuesday & Thursday  1pm -3pm",45134 N. Sierra Hwy.,"Lancaster, CA 93534, United States","45134 N. Sierra Hwy. Lancaster, CA 93534, United States",34.7027136,-118.1373205
Grant AME Church,Thursday 9 am - 11 am,1147 E. 105th Street.,"Los Angeles, CA 90002, United States","1147 E. 105th Street. Los Angeles, CA 90002, United States",33.9411661,-118.2549668
Greater Emmanuel M.B.C.,Friday 10 AM- 12 PM,3727 W. 111th Pl,"Inglewood, CA 90303, United States","3727 W. 111th Pl Inglewood, CA 90303, United States",33.9340779,-118.3384248
Greater Emmanuel M.B.C.,Wednesday 10:30 am - 12:30 pm,9239 S. Vermont Ave,"Los Angeles, CA 90004, United States","9239 S. Vermont Ave Los Angeles, CA 90004, United States",33.9524146,-118.292122
Greater Good News Church of God in Christ,2nd & 4th Sunday 10am-11am,5840 S. Broadway,"Los Angeles, CA 90003, United States","5840 S. Broadway Los Angeles, CA 90003, United States",33.9884911,-118.2780143
"Greater New Bethel Baptist Church, Inc.","2nd Tuesday, 4th Thursday 10 am - 1 pm",601 E. 99th Street,"Inglewood, CA 90301, United States","601 E. 99th Street Inglewood, CA 90301, United States",33.9469064,-118.3464231
Greater New Light Baptist Church,Tuesday 10:30am-11:30am,1734 Arroyo Ave,"Pomona, CA 91768, United States","1734 Arroyo Ave Pomona, CA 91768, United States",34.0652382,-117.7830802
Greater New Morning Star Baptist Church,Saturday 8:30am-12pm,210 W. Florence Avenue,"Los Angeles, CA 90003, United States","210 W. Florence Avenue Los Angeles, CA 90003, United States",33.9743353,-118.276644
Guadalupe Food Program,2nd & 4th Wednesday 3:30pm-5:30pm,4018 Hammel St,"Los Angeles, CA 90063, United States","4018 Hammel St Los Angeles, CA 90063, United States",34.042133,-118.1794993
H.O.P.E. Helping Other People Excel,Tuesday 10am - 12pm,7615 S. Western Ave,"Los Angeles, CA 90047, United States","7615 S. Western Ave Los Angeles, CA 90047, United States",33.9703952,-118.3092688
Hacienda Christian Fellowship,2nd & 4th  Friday 2pm-4pm,1358 N Hacienda Blvd,"La Puente, CA 91744, United States","1358 N Hacienda Blvd La Puente, CA 91744, United States",34.0453776,-117.9487438
"Harbor Christian Center, Inc.","4th Tuesday , 4th Thursday & 4th Saturday 10:30am-12pm & 12:45pm-1:30pm",1602 N. Wilmington Blvd.,"Wilmington, CA 90744, United States","1602 N. Wilmington Blvd. Wilmington, CA 90744, United States",33.7949509,-118.2748981
Harbor Interfaith Services,Monday - Friday 9:00 AM - 5:00 PM,670 W. 9th St,"San Pedro, CA 90732, United States","670 W. 9th St San Pedro, CA 90732, United States",33.7363011,-118.2916572
Hawaiian Gardens Food Bank,"Tuesday, Thursday 10am -3 PM, Wednesday 10am-5pm",22121 Norwalk Blvd.,"Hawaiian Gardens, CA 90716, United States","22121 Norwalk Blvd. Hawaiian Gardens, CA 90716, United States",33.8270963,-118.0721441
Hawaiin Fedde Sports Complex,11/26/2025 | 9am - 12pm,21301 Elaine Avenue,"Hawaiian Gardens, CA 90716, United States","21301 Elaine Avenue Hawaiian Gardens, CA 90716, United States",33.8357383,-118.076834
Hawthorne S.D.A. Church,1st and 3rd Sunday 10am - 12pm,3939 Marine Ave,"Hawthorne, CA 90250, United States","3939 Marine Ave Hawthorne, CA 90250, United States",33.8951513,-118.3429262
Hays Tabernacle C.M.E. Church,2nd & 4th Tuesday  10:00 am - 2:00 pm,10121 S. Central Ave.,"Los Angeles, CA 90002, United States","10121 S. Central Ave. Los Angeles, CA 90002, United States",33.9442971,-118.2544439
Healing & Hope 4 Homeless,1st and 3rd Saturday 7am-9am,1327 W 64th St,"Los Angeles, CA 90044, United States","1327 W 64th St Los Angeles, CA 90044, United States",33.9816326,-118.2990537
"Healing Los Angeles Together, Inc.","Wednesday 12pm-2pm & 1st ,3rd & 5th  Saturday 12pm-2pm",11001 Crenshaw Blvd,"Inglewood, CA 90303, United States","11001 Crenshaw Blvd Inglewood, CA 90303, United States",33.9356739,-118.3268671
Heavenly Hope House of Prayer,Friday 10 am-1:45 pm,3650 Western Ave,"Los Angeles, CA 90016, United States","3650 Western Ave Los Angeles, CA 90016, United States",34.0217824,-118.3087288
Help Me Help You,1st wedensday 2pm-3pm,730 W 3rd Street,"Long Beach, CA 90802, United States","730 W 3rd Street Long Beach, CA 90802, United States",33.7696911,-118.2011245
Help Me Help You,2nd & 4th wedensday 11:15am-12:15pm,1175 E 11th Street,"Long Beach, CA 90813, United States","1175 E 11th Street Long Beach, CA 90813, United States",33.7812116,-118.1770636
Help Me Help You,2nd and 4th Friday 2pm-3pm,6822 Paramount Blvd.,"Lakewood, CA 90805, United States","6822 Paramount Blvd. Lakewood, CA 90805, United States",33.8786599,-118.1585302
Help Me Help You,1st & 3rd Wednesday 4pm-5pm,628 Alamitos Ave.,"Long Beach, CA 90802, United States","628 Alamitos Ave. Long Beach, CA 90802, United States",33.7745062,-118.1797372
Help Me Help You,2nd and 4th Wednesdays 1pm - 2pm,2640 Santa Fe Ave,"Long Beach, CA 90810, United States","2640 Santa Fe Ave Long Beach, CA 90810, United States",33.805261,-118.2150894
Help Me Help You,1st annd3rd Friday 1pm-2pm,668 Obispo Ave,"Long Beach, CA 90814, United States","668 Obispo Ave Long Beach, CA 90814, United States",33.7747794,-118.1541576
Help Me Help You,2nd and 4th Friday 11:30am - 12:30pm,700 Locust Ave,"Long Beach, CA 90813, United States","700 Locust Ave Long Beach, CA 90813, United States",33.775536,-118.1906597
Help Me Help You,3rd Wednesday 11:30am - 12:30pm,1716 Walnut Ave,"Long Beach, CA 90813, United States","1716 Walnut Ave Long Beach, CA 90813, United States",33.7884002,-118.1718121
Help Me Help You,1st and 3rd Friday 11:30am - 12:30 pm,515 Lime Ave,"Long Beach, CA 90802, United States","515 Lime Ave Long Beach, CA 90802, United States",33.7738309,-118.184025
"Helping Hands, Caring Hearts Ministry",Saturday 9 am - 12 pm,500 Vinton Ave,"Pomona, CA 91767, United States","500 Vinton Ave Pomona, CA 91767, United States",34.0781626,-117.7440486
Higher Vision Church,Saturday 9am-11am,27053 Hanby Ave,"Canyon Country, CA 91351, United States","27053 Hanby Ave Canyon Country, CA 91351, United States",34.4250713,-118.4943473
Higher Vision Church,Wednesday 10am-11:30am & Saturday 9am-11am,28776 The Old Road,"Valencia, CA 91355, United States","28776 The Old Road Valencia, CA 91355, United States",34.4415195,-118.6046902
His Helping Hands,Thurday 6pm - 7pm,25501 Oak Street,"Lomita, CA 90717, United States","25501 Oak Street Lomita, CA 90717, United States",33.7920015,-118.3177934
HJ New Day New Way Recovery Inc.,3rd Thurs 12:30pm-3pm 1st & 2nd Sunday 11:30 am- 1 pm,8722 Crenshaw Blvd,"Inglewood, CA 90303, United States","8722 Crenshaw Blvd Inglewood, CA 90303, United States",33.9583271,-118.3261224
Hollydale Regional Park MFP,1st Wednesday 9am-11am,5400 Monroe Ave,"South Gate, CA 90280, United States","5400 Monroe Ave South Gate, CA 90280, United States",33.9201877,-118.1747328
Hollywood Community Housing,"Thursday 3pm - 5pm, CLOSED 11/27, 12/25, 1/1",5020 W. Santa Monica Boulevard,"Los Angeles, CA 90029, United States","5020 W. Santa Monica Boulevard Los Angeles, CA 90029, United States",34.0904399,-118.2987956
Hollywood Lutheran Church,Wednesday 11am - 1 PM,1733 N. New Hampshire Ave.,"Hollywood, CA 90027, United States","1733 N. New Hampshire Ave. Hollywood, CA 90027, United States",34.1028083,-118.2936503
Holy Cross Center MFP,3rd Tuesday 9am-11am,104 W. 47th Place,"Los Angeles, CA 90037, United States","104 W. 47th Place Los Angeles, CA 90037, United States",33.9997047,-118.2743145
Holy Family Giving Bank,Monday 9 am - 10:45 am,1524 Fremont Avenue,"South Pasadena, CA 91030, United States","1524 Fremont Avenue South Pasadena, CA 91030, United States",34.1080226,-118.1526561
Holy Redeemer Lutheran Church,Friday 9am-10am,14515 Blaine Ave,"Bellflower, CA 90706, United States","14515 Blaine Ave Bellflower, CA 90706, United States",33.9006004,-118.1271947
Holy Trinity Lutheran Church,2nd & 4th Saturday 12 pm - 1 pm,9300 Crenshaw Blvd,"Inglewood, CA 90305, United States","9300 Crenshaw Blvd Inglewood, CA 90305, United States",33.9521226,-118.3260668
Holy Virgin Mary Coptic Orthodox Church,3rd Wednesday 9 AM - 10 AM,4900 Cleland Avenue,"Los Angeles, CA 90042, United States","4900 Cleland Avenue Los Angeles, CA 90042, United States",34.1142932,-118.2104038
Hope & Cure Fibromyalgia Foundation Corporation,1st & 4th Saturday 10 am - 12pm,2426 Santa Fe Ave,"Long Beach, CA 90810, United States","2426 Santa Fe Ave Long Beach, CA 90810, United States",33.8013833,-118.2151493
Hope Chapel Foursquare Church,Wednesday & Friday 9am - 12pm &  1pm - 4pm,2420 Pacific Coast Highway,"Hermosa Beach, CA 90254, United States","2420 Pacific Coast Highway Hermosa Beach, CA 90254, United States",33.8715255,-118.394311
Hope Chapel Lancaster,"1st, 3rd Friday 930am - 11am",6015 W Avenue J8,"Quartz Hill, CA 93536, United States","6015 W Avenue J8 Quartz Hill, CA 93536, United States",34.682475,-118.2376777
Hope Chapel Lancaster - Mayflower Gardens,3rd Friday 12pm-1pm,6570 W Avenue L12,"Quartz Hill, CA 93536, United States","6570 W Avenue L12 Quartz Hill, CA 93536, United States",34.6492887,-118.2470194
Hopes & Promises,Thursday 4pm - 6pm,7106 Sorensen Ave,"Whittier, CA 90606, United States","7106 Sorensen Ave Whittier, CA 90606, United States",33.9769726,-118.0536181
House of Food and Prayer,Saturday 9am-12pm,805 N. 1st Ave,"Duarte, CA 91010, United States","805 N. 1st Ave Duarte, CA 91010, United States",34.1484839,-118.0289284
Houses of Light Church Corporation,Saturdays 6:30am - 7:30am,19359 Londelius Street,"Northridge, CA 91324, United States","19359 Londelius Street Northridge, CA 91324, United States",34.2304407,-118.5557711
ICNA Relief,3rd  Tuesday 4:10 pm  - 6 pm,1301 E Las Tunas Dr,"San Gabriel, CA 91776, United States","1301 E Las Tunas Dr San Gabriel, CA 91776, United States",34.1040544,-118.0793696
ICNA Relief,1st Tuesdays 2:45 pm - 4 pm,805 S. Garey Ave,"Pomona, CA 91766, United States","805 S. Garey Ave Pomona, CA 91766, United States",34.0521784,-117.7503192
ICNA Relief,3rd Thursday 2:30 pm-4:30 pm,18206 Victory Blvd,"Tarzana, CA 91335, United States","18206 Victory Blvd Tarzana, CA 91335, United States",34.1862531,-118.5297453
ICNA Relief,2nd & 4th Tuesday 2:30 pm - 3:30 pm,12209 Hawthorne Way,"Hawthorne, CA 90250, United States","12209 Hawthorne Way Hawthorne, CA 90250, United States",33.9217506,-118.353865
ICNA Relief USA Program,Tuesday 11 am-1 pm,19164 E. Walnut Drive,"Rowland Heights, CA 91748, United States","19164 E. Walnut Drive Rowland Heights, CA 91748, United States",33.9953969,-117.8843317
Iglesia Cristiana El Shaddai USA,Friday  10am-12pm & Friday  9am-10am  CLOSED  11/7 &  December 2025,5518 S. Broadway,"Los Angeles, CA 90037, United States","5518 S. Broadway Los Angeles, CA 90037, United States",33.9921093,-118.2780381
Iglesia de Cristo Elim,Saturday 7am - 9am,550 S. Hollenbeck Ave.,"Covina, CA 91723, United States","550 S. Hollenbeck Ave. Covina, CA 91723, United States",34.0800083,-117.8986051
Iglesia de la Comunidad Presbyterian Church,1st & 3rd Thursday 10:30am - 12:30pm,115 N. Ave 53,"Los Angeles, CA 90042, United States","115 N. Ave 53 Los Angeles, CA 90042, United States",34.1073413,-118.1981542
Iglesia Macedonia Defenders of the Christian Faith,"Wednesday 6 am - 7:30 am, Thursday 8:30 am - 9:30 am & Saturday 1:30 pm - 2:30 pm",9228 S. Central Ave,"Los Angeles, CA 90002, United States","9228 S. Central Ave Los Angeles, CA 90002, United States",33.9525626,-118.2557459
Iglesia Misionera Jesucristo Es Dios,Friday 8am-11am,2801 Los Flores Blvd.,"Lynwood, CA 90262, United States","2801 Los Flores Blvd. Lynwood, CA 90262, United States",33.9329509,-118.2222436
Iglesia Pentecostal Peniel,Friday 10:30am-4pm,2614 Pasadena Ave,"Los Angeles, CA 90031, United States","2614 Pasadena Ave Los Angeles, CA 90031, United States",34.0770232,-118.2153932
"Iglesia Pentecostes El Lirio de Los Valles, Inc.",2nd & 4th Saturday 9am - 11 AM,"45029 N. Trevor Avenue, Suite #101","Lancaster, CA 93534, United States","45029 N. Trevor Avenue, Suite #101 Lancaster, CA 93534, United States",34.7012626,-118.1345052
Iglesia Pentecostes Roca de Salvacion,"Last Friday 8 am - 10:30 am ,  2nd & 4th Sunday 4:30pm-5:30pm",122 S. Evergreen Avenue,"Los Angeles, CA 90033, United States","122 S. Evergreen Avenue Los Angeles, CA 90033, United States",34.0396789,-118.202581
Iglesia Un Renuevo,3rd Friday 5:30pm - 8pm,13216 Fairford Ave.,"Norwalk, CA 90650, United States","13216 Fairford Ave. Norwalk, CA 90650, United States",33.9109543,-118.0945954
II Adam Ministries,"Thursday 10/02, 10/16, 10/30, 11/06, 11/20, 12/04, 12/18  5pm - 7pm",15849 E. Main St,"La Puente, CA 91744, United States","15849 E. Main St La Puente, CA 91744, United States",34.0203007,-117.9522903
Immanuel Presbyterian Church,Wednesday & Friday 9am - 12 PM,663 S. Berendo Street,"Los Angeles, CA 90005, United States","663 S. Berendo Street Los Angeles, CA 90005, United States",34.0610919,-118.2944153
Impact LA,1st and 3rd Friday 10:00 am - 2:00 PM,811 W. 7th Street Suite# 1236,"Los Angeles, CA 90017, United States","811 W. 7th Street Suite# 1236 Los Angeles, CA 90017, United States",34.0490854,-118.259013
Imperial Church of Christ,2nd & 4th Saturday 8am-9am,11316 S. San Pedro Street,"Los Angeles, CA 90061, United States","11316 S. San Pedro Street Los Angeles, CA 90061, United States",33.9315739,-118.269153
Indonesian American SDA Church,"1st,2nd, 3rd Tuseday 11:30am-1:00pm",803 W. First St,"Azusa, CA 91702, United States","803 W. First St Azusa, CA 91702, United States",34.1220226,-117.9167297
Inglewood Church of Christ,2nd Saturday 11am - 1 PM,323 S. Eucalyptus Ave.,"Inglewood, CA 90301, United States","323 S. Eucalyptus Ave. Inglewood, CA 90301, United States",33.9595298,-118.3598947
Inglewood Southside Christian Church,Saturday 10am - 1pm,3947 W. 104th Street,"Inglewood, CA 90303, United States","3947 W. 104th Street Inglewood, CA 90303, United States",33.9421127,-118.3433255
Inglewood Wrapping Arms Around the Community,2nd & 4th Sunday 9am-12pm,650 E Manchester Ave.,"Inglewood, CA 90301, United States","650 E Manchester Ave. Inglewood, CA 90301, United States",33.960159,-118.346893
Inglewood Wrapping Arms Around the Community / Masjid Bilal Islamic Center,Saturday 9am-12pm,4016 S. Central Ave,"Los Angeles, CA 90011, United States","4016 S. Central Ave Los Angeles, CA 90011, United States",34.0106632,-118.2557678
Inland Valley Hope Partners,Monday - Thursday  9 am - 2:30 pm,"209 W. Pearl Street, Suite J104 *knock on door","Pomona, CA 91766, United States","209 W. Pearl Street, Suite J104 *knock on door Pomona, CA 91766, United States",34.0649148,-117.7524328
Inland Valley Hope Partners,Tuesday 9 am - 4 pm,660 N. Mountain Avenue,"Claremont, CA 91711, United States","660 N. Mountain Avenue Claremont, CA 91711, United States",34.0998744,-117.7281741
Inland Valley Hope Partners,"Monday, Wednesday, Friday  2 pm - 4 pm",110 E. 3rd Street,"San Dimas, CA 91773, United States","110 E. 3rd Street San Dimas, CA 91773, United States",34.1096106,-117.8066779
Inland Valley Hope Partners,Monday - Thursday  9 am - 3 pm,904 E. California Street,"Ontario, CA 91761, United States","904 E. California Street Ontario, CA 91761, United States",34.0555515,-117.6363812
Inner City Child Development &Youth Foundation,Thurdsay 11am- 1pm,8928 Figueroa St,"Los Angeles, CA 90003, United States","8928 Figueroa St Los Angeles, CA 90003, United States",33.9553598,-118.2824677
Interfaith Food Center,"Monday, Tuesday & Friday  8:30 am -10 am , 10:30 am - 12 pm & Tuesday 4:30 pm - 6:30 pm",11819 Burke Street,"Santa Fe Springs, CA 90670, United States","11819 Burke Street Santa Fe Springs, CA 90670, United States",33.9629368,-118.0650538
International Families Association,Monday 12pm-4pm,240 S. Glendale Ave,"Glendale, CA 91205, United States","240 S. Glendale Ave Glendale, CA 91205, United States",34.143183,-118.2483963
Islah L.A.,Saturday 10am-2pm,2900 Slauson Ave.,"Los Angeles, CA 90043, United States","2900 Slauson Ave. Los Angeles, CA 90043, United States",33.9888533,-118.3246887
Islamic Center of Southern CA - Hope Net,Saturday 9:30 am - 11 am,434 S. Vermont Boulevard,"Los Angeles, CA 90020, United States","434 S. Vermont Boulevard Los Angeles, CA 90020, United States",34.0665598,-118.2916754
IVCINYA Foundation,"Thursday 10/02, 10/16, 10/30, 11/13, 11/27, 12/11, 12/25  9am-1pm",8928 Figueroa St,"Los Angeles, CA 90003, United States","8928 Figueroa St Los Angeles, CA 90003, United States",33.9553598,-118.2824677
Jeremiah 1:10 Corporation,Thursday 10am - 11 am,10896 Lehigh Ave,"Pacoima, CA 91331, United States","10896 Lehigh Ave Pacoima, CA 91331, United States",34.2687979,-118.4153519
Jesucristo el Mana,Wednesday 5:30pm-6:30pm,12838 Atlantic Ave,"Compton, CA 90221, United States","12838 Atlantic Ave Compton, CA 90221, United States",33.9050543,-118.1937958
Jesus House Palmdale,2nd & 4th Monday 12pm - 2pm,313 E. Palmdale Blvd,"Units A,  B, Palmdale, CA 93590, United States","313 E. Palmdale Blvd Units A,  B, Palmdale, CA 93590, United States",34.580373,-118.1243146
JFS/SOVA Community Food & Resource Program,Monday-Thursday 10am-1:30pm & Sundays 9am-12pm,8846 W. Pico Boulevard,"Los Angeles, CA 90035, United States","8846 W. Pico Boulevard Los Angeles, CA 90035, United States",34.0547865,-118.3848465
JFS/SOVA Community Food & Resource Program,1st & 3rd Friday 9am-11am,801 N. Kings Road,"West Hollywood, CA 90069, United States","801 N. Kings Road West Hollywood, CA 90069, United States",34.0856463,-118.3721303
JFS/SOVA Community Food & Resource Program,Tuesday 10am-12pm,7377 Santa Monica Blvd,"Los Angeles, CA 90046, United States","7377 Santa Monica Blvd Los Angeles, CA 90046, United States",34.0927831,-118.3511258
JFS/SOVA Community Food & Resource Program,"Monday- Wednesday 10 am - 2:30 pm, Sunday 9am - 12 pm",16439 Vanowen Street,"Van Nuys, CA 91406, United States","16439 Vanowen Street Van Nuys, CA 91406, United States",34.1946798,-118.4917628
Joseph Jacob United Church of God In Christ Inc,2nd Wednesday 10am-11:30am,16303 Orange Ave,"Paramount, CA 90723, United States","16303 Orange Ave Paramount, CA 90723, United States",33.8863024,-118.1778124
Journey of Love,1st Tuesday 6pm - 7:30pm,423 S San Pedro,"Los Angeles, CA 90013, United States","423 S San Pedro Los Angeles, CA 90013, United States",34.045339,-118.2436626
Journey of Love,"Last Friday 8 am - 10 am  OPEN 11/26, CLOSED 11/28",20320 Norwalk Blvd,"Lakewood, CA 90715, United States","20320 Norwalk Blvd Lakewood, CA 90715, United States",33.8455214,-118.0716868
Journey of Love,2nd Friday 8am-10am,12005 Garfield Ave,"South Gate, CA 90302, United States","12005 Garfield Ave South Gate, CA 90302, United States",33.9177192,-118.1693152
Justice for Murdered Children,"2nd, 3rd & 4th Saturday 1pm - 3pm",1039 Elberon Ave,"San Pedro, CA 90732, United States","1039 Elberon Ave San Pedro, CA 90732, United States",33.7481948,-118.299846
Karsh Family Social Service Center,"Tuesday 12:00 pm - 2:00 pm, Sundays 8:00 am - 9:30 am",3750 W. 6th Street,"Los Angeles, CA 90020, United States","3750 W. 6th Street Los Angeles, CA 90020, United States",34.0632632,-118.3044586
Kedren Community Health Center,2nd & 4th Friday 9am-11am,4211 S. Avalon Blvd,"Los Angeles, CA 90011, United States","4211 S. Avalon Blvd Los Angeles, CA 90011, United States",34.0072756,-118.2652643
Khalsa Care Foundation,Friday 4:30 pm - 6:30 pm,9989 Laurel Canyon Blvd.,"Pacoima, CA 91331, United States","9989 Laurel Canyon Blvd. Pacoima, CA 91331, United States",34.2512842,-118.4255414
Kingdom Family Network,2nd Wednesday 7pm-8pm & 4th  Saturday 9am-10am,646 S. San Antonio,"Pomona, CA 91766, United States","646 S. San Antonio Pomona, CA 91766, United States",34.0539779,-117.7362785
Korean Church of North L.A.,"1st, 3rd Saturday 9 - 10 am",8756 Woodley Ave,"North Hills, CA 91343, United States","8756 Woodley Ave North Hills, CA 91343, United States",34.2296992,-118.4848452
Koreatown Youth Community Center Inc.,3rd Friday 10 am - 11 am,1230 S. Menlo Ave #100,"Los Angeles, CA 90006, United States","1230 S. Menlo Ave #100 Los Angeles, CA 90006, United States",34.0478768,-118.2903692
La Habra Christian Church,"1st Saturday 8am - 11am, Sundays 11am-12pm",1400 Bella Vista Drive,"La Habra Heights, CA 90631, United States","1400 Bella Vista Drive La Habra Heights, CA 90631, United States",33.9500936,-117.9272674
LA Promise Fund,1st & 3rd Wednesdays 2:30pm-4pm,2340 Firestone Blvd,"South Gate, CA 90280, United States","2340 Firestone Blvd South Gate, CA 90280, United States",33.9563812,-118.2297576
La Puente Church of Christ,1st & 3rd Friday 7:30am-9:30am,15124 E. Amar Road,"La Puente, CA 91744, United States","15124 E. Amar Road La Puente, CA 91744, United States",34.0361286,-117.9346042
La Puente Foursquare Church,"Tuesday, Thursday & Saturday 10:30am-11:15am & Sunday 11:45am-12:30pm",15017 Fairgrove Ave.,"La Puente, CA 91744, United States","15017 Fairgrove Ave. La Puente, CA 91744, United States",34.0454903,-117.9536397
La Puente Spanish S.D.A. Church,2nd & 4th Wednesday 10am-11am & 7:30pm-8:30pm 2nd & 4th Saturday 12pm-1pm,18047 Valley Boulevard,"La Puente, CA 91744, United States","18047 Valley Boulevard La Puente, CA 91744, United States",34.0068113,-117.9088349
LA Valley College,Wednesday 11am-1pm,5800 Fulton Ave,"Valley Glem, CA 91401, United States","5800 Fulton Ave Valley Glem, CA 91401, United States",34.1752206,-118.4151579
La Voz Sylmar SDA Church,Thursday 4:30 pm - 5:30 pm,13550 Herron St,"Sylmar, CA 91342, United States","13550 Herron St Sylmar, CA 91342, United States",34.3135517,-118.4278215
Lady Bug Ministry,Last Tuesday 9am - 10am,1016 E Rosecrans Ave,"Compton, CA 90043, United States","1016 E Rosecrans Ave Compton, CA 90043, United States",33.9022549,-118.2571439
Lady Bug Ministry,1st Wednesday 9am-10am,6111 Gramercy Place,"Los Angeles, CA 90047, United States","6111 Gramercy Place Los Angeles, CA 90047, United States",33.984096,-118.3139205
Lakeview Terrace American Baptist Church,2nd Saturday 10am - 1130,11901 Foothill Blvd,"Sylmar, CA 91342, United States","11901 Foothill Blvd Sylmar, CA 91342, United States",34.275728,-118.3958612
Lancaster Municipal Stadium,11/22/2025 | 9am - 12pm,45116 Vly Central Way,"Lancaster, CA 93536, United States","45116 Vly Central Way Lancaster, CA 93536, United States",34.7028501,-118.1729732
Lawrence Ministries,3rd Saturdays 10 am - 2 pm,12441 E. Farlow Street,"Hawaiian Gardens, CA 90716, United States","12441 E. Farlow Street Hawaiian Gardens, CA 90716, United States",33.8328834,-118.0662692
LBCC @Veterans Memorial Stadium,11/21/2025 | 9am -12pm,5000 E. Lew Davis Street LOT M,"Long Beach, CA 90808, United States","5000 E. Lew Davis Street LOT M Long Beach, CA 90808, United States",33.8276307,-118.1361964
LCS Maywood,4th Tuesday 9am-12pm,4735 Slauson Ave,"Maywood, CA 90270, United States","4735 Slauson Ave Maywood, CA 90270, United States",33.9868861,-118.1799236
LCS Mission Hills,2nd Tuesday  9am-12pm,14800 Devonshire St,"Mission Hills, CA 91345, United States","14800 Devonshire St Mission Hills, CA 91345, United States",34.2569199,-118.4547255
Lennox Middle School,11/22/2025 | 9am - 12pm,11033 Buford Avenue,"Lennox, CA 90304, United States","11033 Buford Avenue Lennox, CA 90304, United States",33.9346693,-118.3644569
Light and Life Free Methodist Church,Wedensday 10am-12pm & 2nd Saturday 10am - 12pm,5951 Downey Ave,"Long Beach, CA 90805, United States","5951 Downey Ave Long Beach, CA 90805, United States",33.8636561,-118.1520395
Lighthouse Community Outreach Inc,Thursdays 11 am - 3 pm,1976 E. 103rd St,"Los Angeles, CA 90002, United States","1976 E. 103rd St Los Angeles, CA 90002, United States",33.9428449,-118.2370796
Lighthouse of San Fernando,Friday 3pm - 4pm,622 N. Maclay Ave,"San Fernando, CA 91340, United States","622 N. Maclay Ave San Fernando, CA 91340, United States",34.2891819,-118.4328024
Lincoln Avenue Baptist Church,Wednesday 10am - 12pm,1180 N. Lincoln Avenue,"Pasadena, CA 91103, United States","1180 N. Lincoln Avenue Pasadena, CA 91103, United States",34.1816336,-118.1596911
Living Hope SDA Church,3rd & 4th Sunday 1pm-3pm,650 W. 21st St,"Los Angeles, CA 90007, United States","650 W. 21st St Los Angeles, CA 90007, United States",34.0326766,-118.2751824
Living Springs Foursquare Church,2nd & 4th Wednesday 8am - 10am,17315 Coolwater Ave,"Palmdale, CA 93591, United States","17315 Coolwater Ave Palmdale, CA 93591, United States",34.6158829,-117.8202224
Loaves & Fishes - Canoga Park,"4th Mondays, Wednesdays & Fridays 9 am - 12 pm",21600 Hart Street,"Canoga Park, CA 91303, United States","21600 Hart Street Canoga Park, CA 91303, United States",34.1972021,-118.6006611
Loaves & Fishes - Glendale,Monday- Friday 9am-3pm,4322 San Fernando Road,"Glendale, CA 91204, United States","4322 San Fernando Road Glendale, CA 91204, United States",34.1316301,-118.2610603
Long Beach Center for Economic Inclusion,Mondays 10am-12pm,6509 Gundry Ave,"Long Beach, CA 90805, United States","6509 Gundry Ave Long Beach, CA 90805, United States",33.8730083,-118.1754622
Long Beach City College,Monday - Thursday 9am-4pm,4901 E. Carson St,"Long Beach, CA 90808, United States","4901 E. Carson St Long Beach, CA 90808, United States",33.829762,-118.1358352
Long Beach City College - MFP,4th Thursday 1pm - 3pm,1305 E Pacific Coast Hwy,"Long Beach, CA 90806, United States","1305 E Pacific Coast Hwy Long Beach, CA 90806, United States",33.7919745,-118.1760191
Long Beach City College- PCC Campus,4th Tuesday 1pm-3pm,1305 E. Pacific Coast Hwy,"Long Beach, CA 90806, United States","1305 E. Pacific Coast Hwy Long Beach, CA 90806, United States",33.7919745,-118.1760191
Long Beach Community Table,"Tuesday's & Wednesday's 5:30pm-7pm , Fridays's 12pm-4pm & Saturday's 12pm-2pm",3311 E. 59th St,"Long Beach, CA 90805, United States","3311 E. 59th St Long Beach, CA 90805, United States",33.8632054,-118.1527727
Long Beach Family Health Care Outreach Inc.,"Friday 10/3, 10/17, 11/7, 11/21, 12/5, 12/19 10am-12pm",2385 Pacific Ave,"Long Beach, CA 90806, United States","2385 Pacific Ave Long Beach, CA 90806, United States",33.8005541,-118.1940414
Long Beach Lutheran Social Services,"Monday, Tuesday 10am - 12pm, 1230pm - 2pm, Wednesday 11am - 12pm, 1230 - 2pm, Thursday 10am - 12pm, 1230 - 2pm",1611 Pine Avenue,"Long Beach, CA 90813, United States","1611 Pine Avenue Long Beach, CA 90813, United States",33.7874645,-118.1927444
Long Beach Poly High School Food Bank,Wednesday & Friday 2pm-4pm,1600 Atlantic Ave,"Long Beach, CA 90813, United States","1600 Atlantic Ave Long Beach, CA 90813, United States",33.7871324,-118.183218
Long Beach S.D.A. Church,3rd Sunday 8am-10am,1001 E. 3rd Street,"Long Beach, CA 90802, United States","1001 E. 3rd Street Long Beach, CA 90802, United States",33.7709249,-118.1797899
Los Angeles Boys & Girls Club,Thursday 4pm - 6pm & Sunday 11am-1pm,2635 Pasadena Avenue,"Los Angeles, CA 90031, United States","2635 Pasadena Avenue Los Angeles, CA 90031, United States",34.078001,-118.215701
Los Angeles County Aging and Disabilities Depart.,"Monday 2 pm - 4 pm, & Tuesday 930am - 12pm &  2 pm - 4 pm",1441 Santa Anita Avenue,"South El Monte, CA 91733, United States","1441 Santa Anita Avenue South El Monte, CA 91733, United States",34.0451558,-118.04555
Los Angeles County Aging and Disabilities Depart.,"Monday 2pm - 4pm, Tuesday 930am - 12pm, 2pm - 4pm",15116 S. Atlantic Ave,"Compton, CA 90221, United States","15116 S. Atlantic Ave Compton, CA 90221, United States",33.8954999,-118.1926859
Los Angeles County Aging and Disabilities Depart.,Monday 2pm - 4PM & Tuesday 9:30am - 12 PM & 2pm-4pm,4716 E. Cesar Chavez Avenue,"Los Angeles, CA 90022, United States","4716 E. Cesar Chavez Avenue Los Angeles, CA 90022, United States",34.0403431,-118.1644806
Los Angeles County Aging and Disabilities Depart.,Monday 2pm - 4PM & Tuesday 9:30am - 12 PM & 2pm-4PM,133 N. Sunol Drive,"Los Angeles, CA 90063, United States","133 N. Sunol Drive Los Angeles, CA 90063, United States",34.037144,-118.1793032
Los Angeles County Aging and Disabilities Depart.,"Monday 2pm - 4pm, Tuesday 9:30am - 12pm, 2pm - 4pm",777 W. Jackman Street,"Lancaster, CA 93534, United States","777 W. Jackman Street Lancaster, CA 93534, United States",34.7016605,-118.1447615
Los Angeles County Aging and Disabilities Depart.,Monday 2pm-4pm & Tuesday 9:30am-12pm & 2pm-4pm,11640 W. Slauson Avenue,"Whittier, CA 90606, United States","11640 W. Slauson Avenue Whittier, CA 90606, United States",33.9642626,-118.0676184
Los Angeles County Aging and Disabilities Depart.,"Monday 2pm - 4pm, Tuesday 930am - 12pm, 2pm - 4pm",12915 Jarvis Avenue,"Los Angeles, CA 90061, United States","12915 Jarvis Avenue Los Angeles, CA 90061, United States",33.9149413,-118.2723456
Los Angeles County Aging and Disabilities Depart.,"Monday 2pm - 4pm, Tuesday 930am - 12pm, 2pm - 4pm",769 W. Third Street,"San Pedro, CA 90731, United States","769 W. Third Street San Pedro, CA 90731, United States",33.7413313,-118.2939075
Los Angeles County Aging and Disabilities Depart.,"Monday 2pm - 530pm, Tuesday 930am - 12pm, 2pm - 530pm",7807 S. Compton Avenue,"Los Angeles, CA 90001, United States","7807 S. Compton Avenue Los Angeles, CA 90001, United States",33.9197623,-118.2465216
Los Angeles County Aging and Disabilities Depart.,"Monday 2pm - 4pm, Tuesday 930am - 12pm, 2pm - 4pm","26111 Bouquet Canyon Road, Suite H001","Santa Clarita, CA 91350, United States","26111 Bouquet Canyon Road, Suite H001 Santa Clarita, CA 91350, United States",34.4178581,-118.5427721
Los Angeles County Aging and Disabilities Depart.,"Monday 2pm - 4pm, Tuesday 9:30am - 12pm, 2pm - 4pm",441 E. Carson St. Ste. L,"Carson, CA 90745, United States","441 E. Carson St. Ste. L Carson, CA 90745, United States",33.8324786,-118.2686794
Los Angeles County/USC Medical Center Auxiliary,4th Friday 9am-11am    November & December Distributions will be held the 2nd Friday 11/14 & 12/12,1200 N. State Street,"Los Angeles, CA 90033, United States","1200 N. State Street Los Angeles, CA 90033, United States",34.0600972,-118.2117685
Los Angeles First Church of the Nazarene - Hope Net,Saturday 8 - 10am,3401 W. 3rd Street,"Los Angeles, CA 90020, United States","3401 W. 3rd Street Los Angeles, CA 90020, United States",34.0692656,-118.2896795
Love & Unity Christian Fellowship,3rd Friday 12pm - 2pm,1842 S. Wilmington Ave,"Compton, CA 90220, United States","1842 S. Wilmington Ave Compton, CA 90220, United States",33.8769065,-118.2357327
Loveship Community Outreach,2nd Sundays 9:30 am - 11:30 am & 4th Saturday 2:30pm-4:30pm,836 E. Avenue I,"Lancaster, CA 93535, United States","836 E. Avenue I Lancaster, CA 93535, United States",34.7038308,-118.1136341
Lutheran Social Services of SoCal,Monday-Thursday 8am-2pm,1611 Pine Ave,"Long Beach, CA 90813, United States","1611 Pine Ave Long Beach, CA 90813, United States",33.7874645,-118.1927444
Lynwood Partners Educational Foundation,Wednesdays 10 am - 12:30 pm,11321 Bullis Rd,"Lynwood, CA 90262, United States","11321 Bullis Rd Lynwood, CA 90262, United States",33.9262361,-118.2003727
Lynwood United Methodist Church,Wednesdays 9 am - 10 am,4207 Carlin Avenue,"Lynwood, CA 90262, United States","4207 Carlin Avenue Lynwood, CA 90262, United States",33.9125476,-118.1961475
Macedonia Community Development,Tuesdays 9am-11am,11101 Wilmington Ave.,"Los Angeles, CA 90059, United States","11101 Wilmington Ave. Los Angeles, CA 90059, United States",33.934187,-118.2392539
Making It Happen,Saturday 1:30pm-2:30pm,9666 Foothill Pl,"Lakeview Terrace, CA 91342, United States","9666 Foothill Pl Lakeview Terrace, CA 91342, United States",34.2733214,-118.3402136
Manos Que Sobreviven,Wednesday 7am - 2pm,2930 Fletcher Dr,"Los Angeles, CA 90065, United States","2930 Fletcher Dr Los Angeles, CA 90065, United States",34.1139119,-118.2466544
Maranatha S.D.A. Community Center,"2nd, 4th Tuesday 10am - 1130am",3569 W. Manchester Blvd,"Inglewood, CA 90305, United States","3569 W. Manchester Blvd Inglewood, CA 90305, United States",33.9602163,-118.3348263
Meet Each Need with Dignity,"1st & 3rdTuesday 10am-11am, Wednesday & Friday 9am-12pm, Thursday 9am-11am & 1st & 3rd Saturday 9am-12pm",10641 San Fernando Rd,"Pacoima, CA 91331, United States","10641 San Fernando Rd Pacoima, CA 91331, United States",34.2630367,-118.4195743
Men's Health Foundation,2nd & 4th Wednesday 12pm-2pm & 4pm-6pm,8601 S. Broadway St,"Los Angeles, CA 90003, United States","8601 S. Broadway St Los Angeles, CA 90003, United States",33.9598853,-118.2788032
Metropolitan Community Church of L.A.,Saturday 7:30am - 9:30am,4607 Prospect Avenue,"Los Angeles, CA 90027, United States","4607 Prospect Avenue Los Angeles, CA 90027, United States",34.1020959,-118.2898258
Mexican - American Opportunity Foundation,Thursday 8am - 12pm,401 N. Garfield Ave,"Montebello, CA 90640, United States","401 N. Garfield Ave Montebello, CA 90640, United States",34.0192276,-118.1337198
Mid City Spanish S.D.A. Church,"Wednesday 12:pm -3pm 10/01, 10/15, 10/29, 11/12, 11/26, 12/10",330 W. 61st St,"Los Angeles, CA 90003, United States","330 W. 61st St Los Angeles, CA 90003, United States",33.9838901,-118.2794877
Mid Valley Family,3rd Thursday 330 - 430pm,6901 Lennox Ave.,"Van Nuys, CA 91405, United States","6901 Lennox Ave. Van Nuys, CA 91405, United States",34.1966127,-118.4456648
Ministerio Cristiano Faro de Luz,Thursdays 9am-12pm,7502 San Pedro St,"Los Angeles, CA 90003, United States","7502 San Pedro St Los Angeles, CA 90003, United States",33.9720187,-118.2692302
Ministerio Cristiano Faro de Luz,Wednesday 9am-12pm,9615 Kalmia St,"Los Angeles, CA 90002, United States","9615 Kalmia St Los Angeles, CA 90002, United States",33.9489571,-118.2320065
Ministry by Insprirational Women,Tuesdays 12pm-2pm,3740 E. Imperial Hwy,"Lynwood, CA 90262, United States","3740 E. Imperial Hwy Lynwood, CA 90262, United States",33.9317893,-118.1979643
Mission Church of the Hour,Wednesday 6:30am-11am,3611 S. Western Ave,"Los Angeles, CA 90018, United States","3611 S. Western Ave Los Angeles, CA 90018, United States",34.0225056,-118.3091544
Mission Siloe Defensores de la fe Cristian,Tuesday 2pm - 4pm,3818 Maple Ave,"Los Angeles, CA 90011, United States","3818 Maple Ave Los Angeles, CA 90011, United States",34.0125672,-118.272082
Missionaries of Charity,Friday 300pm - 500pm,10950 California Avenue,"Lynwood, CA 90262, United States","10950 California Avenue Lynwood, CA 90262, United States",33.9334774,-118.2081459
Morning Star Outreach Ministry,"2nd Sat 11am-1pm, 4th Saturday 11am-12pm",1416 N. Mentor Ave,"Pasadena, CA 91104, United States","1416 N. Mentor Ave Pasadena, CA 91104, United States",34.1702288,-118.1307582
Morningstar Christian Chapel,Tuesday 10:30 am - 11:30 am,16241 Leffingwell Road,"Whittier, CA 90603, United States","16241 Leffingwell Road Whittier, CA 90603, United States",33.9328701,-117.9843219
"Mothers In Action, Inc.",3rd Tuesday 12pm-3pm,3800 S. Crenshaw Blvd.,"Los Angeles, CA 90008, United States","3800 S. Crenshaw Blvd. Los Angeles, CA 90008, United States",34.0174912,-118.3350497
Mount Hebron Baptist Church,Wednesday 10:30am-1pm,10219 S. Western Ave,"Los Angeles, CA 90047, United States","10219 S. Western Ave Los Angeles, CA 90047, United States",33.9434979,-118.3093247
Mountain of Solutions,2nd and 4th Saturday 12pm-2pm,849 West 85th St,"Los Angeles, CA 90044, United States","849 West 85th St Los Angeles, CA 90044, United States",33.9614401,-118.2886529
Mountain View School District,"Thursday10/2, 10/16, 10/30, 11/13, 11/24, 12/4, 12/18  2pm-6pm",2740 Mt. View Road,"El Monte, CA 91732, United States","2740 Mt. View Road El Monte, CA 91732, United States",34.0602384,-118.0239164
Mrs. Sues House,3rd Monday 10am-12:30pm,345 E. 51st St,"Los Angeles, CA 90011, United States","345 E. 51st St Los Angeles, CA 90011, United States",33.9975563,-118.2665493
My Friends House Foundation,Wednesday 8 am - 10 am,3533 W. 58th Place,"Los Angeles, CA 90043, United States","3533 W. 58th Place Los Angeles, CA 90043, United States",33.9883366,-118.3341769
My Friends House Foundation,Tuesday 3pm - 6pm,1244 E. 7th Street,"Los Angeles, CA 90021, United States","1244 E. 7th Street Los Angeles, CA 90021, United States",34.0367842,-118.2415404
National Day Laborer Organizing Network,Friday 8 am - 12 pm,500 N. Lake,"Pasadena, CA 91101, United States","500 N. Lake Pasadena, CA 91101, United States",34.1546654,-118.1321539
New Antioch Church of God,4th Saturday 8:30am-10am,7826 S. Vermont Ave,"Los Angeles, CA 90044, United States","7826 S. Vermont Ave Los Angeles, CA 90044, United States",33.9683224,-118.2914386
New Beginings Outreach CDC,Mondays 10am-3pm,1000 W. Artesia Blvd,"Gardena, CA 90248, United States","1000 W. Artesia Blvd Gardena, CA 90248, United States",33.8721995,-118.2923092
New Hope Tenth St Baptist Church,4th Saturday 10am-12pm,1160 E. New York Street,"Long Beach, CA 90813, United States","1160 E. New York Street Long Beach, CA 90813, United States",33.784623,-118.1777775
New Life Community Church,Thursday 4:30pm-5:30pm & Friday 11am-3pm CLOSED every 1st week of the month,275 E. Foothill Boulevard,"Pomona, CA 91767, United States","275 E. Foothill Boulevard Pomona, CA 91767, United States",34.1080129,-117.7448828
New Life Community Church,Saturday 9:30am-10:30am,18800 Norwalk Blvd,"Artesia, CA 90701, United States","18800 Norwalk Blvd Artesia, CA 90701, United States",33.8614471,-118.071664
New Mount Pleasant Missionary Baptist Church,"3rd, 4th Wednesday 11am - 2pm",434 S. Grevillea Ave,"Inglewood, CA 90301, United States","434 S. Grevillea Ave Inglewood, CA 90301, United States",33.9582958,-118.3546991
New Rock of Ages Baptist Church,Saturday 11 am - 2 pm,12946 S. Prairie Ave,"Hawthorne, CA 90250, United States","12946 S. Prairie Ave Hawthorne, CA 90250, United States",33.914468,-118.3438969
New Song Church,"1st & 3rd Thursday 7 PM - 8 PM, 2nd & 4th Saturday 10am - 11 AM",945 W. Covina Blvd.,"San Dimas, CA 91773, United States","945 W. Covina Blvd. San Dimas, CA 91773, United States",34.0999059,-117.8258309
Next Dimension Ministries,2nd & 4th Friday 11am-1pm,45337 Sierra Hwy,"Lancaster, CA 93534, United States","45337 Sierra Hwy Lancaster, CA 93534, United States",34.706917,-118.1387931
Noel Community Organization,1st Saturday 10am-12pm,3070 Santa Fe Ave,"Long Beach, CA 90810, United States","3070 Santa Fe Ave Long Beach, CA 90810, United States",33.8138408,-118.2151689
Noel Community Organization,2nd Saturday 11am-1pm,6025 s Figueroa,"Los Angeles, CA 90003, United States","6025 s Figueroa Los Angeles, CA 90003, United States",33.9845511,-118.2830519
Noel Community Organization,3rd Saturday 10am-12pm,1919 E. Compton Blvd,"Compton, CA 90221, United States","1919 E. Compton Blvd Compton, CA 90221, United States",33.8963176,-118.2019125
Noel Community Organization,4ht Saturday 10am-12pm,121 N. Long Beach Blvd,"Compton, CA 90221, United States","121 N. Long Beach Blvd Compton, CA 90221, United States",33.8967184,-118.2082051
Noel Community Organization,4th Saturday 10am-12pm,5238 Clark St,"Lynwood, CA 90262, United States","5238 Clark St Lynwood, CA 90262, United States",33.9102403,-118.1879177
Noel Community Organization,4th Saturday 10am-12pm,121 n Long Beach Blvd.,"Compton, CA 90221, United States","121 n Long Beach Blvd. Compton, CA 90221, United States",33.8967184,-118.2082051
Normandie Avenue S.D.A Church,2nd & 4th Saturday 2pm-4pm,12420 Normandie Ave,"Los Angeles, CA 90044, United States","12420 Normandie Ave Los Angeles, CA 90044, United States",33.9195568,-118.3000824
North Hollywood Interfaith Food Pantry,Monday & Friday 730am-11am,11634 Moorpark Street,"North Hollywood, CA 91602, United States","11634 Moorpark Street North Hollywood, CA 91602, United States",34.1501903,-118.3868175
North Valley Caring Services,Friday 9am - 11 am,15453 Rayen Street,"North Hills, CA 91343, United States","15453 Rayen Street North Hills, CA 91343, United States",34.2322292,-118.4691365
Northeast Valley Health Corporation- Mobile Food Pantry,1st Friday 9am-11am,7223 Fair Ave,"Sun Valley, CA 91352, United States","7223 Fair Ave Sun Valley, CA 91352, United States",34.2019063,-118.3752357
Norwalk SDA Church,Sunday 12pm-2pm,12191 Firestone Blvd,"Norwalk, CA 90650, United States","12191 Firestone Blvd Norwalk, CA 90650, United States",33.9084333,-118.0732053
Oasis Foursquare Church,Thursday 1030am-1130am,8856 Kester Ave,"Panorama City, CA 91402, United States","8856 Kester Ave Panorama City, CA 91402, United States",34.2316723,-118.4570075
Ocean Gate Baptist Church,"2nd, 3rd,m 4th & 5th Thursday 10am-12pm 1st Saturday 11am-12pm",13443 Ocean Gate Ave,"Hawthorne, CA 90250, United States","13443 Ocean Gate Ave Hawthorne, CA 90250, United States",33.9100657,-118.3674749
Omni Ministries,2nd and 4th Friday 9am-2pm,12601 Wilmington Ave,"Compton, CA 90222, United States","12601 Wilmington Ave Compton, CA 90222, United States",33.9183249,-118.2394565
One Generation,"Monday - Friday 9 AM - 12 PM , 12 PM - 4 PM & Saturday  , Sunday 10 AM - 2 PM",18255 Victory Blvd.,"Reseda, CA 91335, United States","18255 Victory Blvd. Reseda, CA 91335, United States",34.187225,-118.531234
Open Arms Food Pantry and Resources,"Mon,Tues, & Thursday 11am-1pm","2010 W. 62nd St, Unit 130","Los Angeles, CA 90047, United States","2010 W. 62nd St, Unit 130 Los Angeles, CA 90047, United States",33.9831462,-118.3141734
Open Arms Housing Foundation,Fridays 1pm-3pm,3253 Del Mar Ave,"Rosemead, CA 91770, United States","3253 Del Mar Ave Rosemead, CA 91770, United States",34.0677227,-118.0998959
Open Arms Housing Foundation,Thursday 12pm-1pm,1025 S. Kern Ave,"Los Angeles, CA 90022, United States","1025 S. Kern Ave Los Angeles, CA 90022, United States",34.0197072,-118.1668668
Open Door Skidrow Ministries,Sunday 11am - 12pm,419 E. 6th Street,"Los Angeles, CA 90014, United States","419 E. 6th Street Los Angeles, CA 90014, United States",34.0425558,-118.2455279
ORALE,"Tuesday 10/28,11/11, 11/25, 12/9   8:30 am- 9:30 am",434 Olive Ave,"Long Beach, CA 90802, United States","434 Olive Ave Long Beach, CA 90802, United States",33.7724752,-118.1821823
ORALE,"Tuesday 10/28,11/11, 11/25, 12/9   8:30 am- 9:30 am",515 W Anaheim St,"Wilmington, CA 90744, United States","515 W Anaheim St Wilmington, CA 90744, United States",33.7798213,-118.2680995
ORALE,"Tuesday 10/28, 11/11, 11/25, 12/9  10 am- 11 am",5314 Lime Ave,"Long Beach, CA 90805, United States","5314 Lime Ave Long Beach, CA 90805, United States",33.8528646,-118.1837224
Our Saviour Center,"Tuesday , Thursday 9am-12pm & 2nd & 4th Saturday 9am-12pm",4368 Santa Anita Avenue,"El Monte, CA 91731, United States","4368 Santa Anita Avenue El Monte, CA 91731, United States",34.0853271,-118.0293354
Palmdale Community Foundation - S.A.V.E.S.,"Monday 1pm-4pm, Tuesday, Wednesday, Thursday 11am - 4pm",1002 E. Avenue Q12,"Palmdale, CA 93550, United States","1002 E. Avenue Q12 Palmdale, CA 93550, United States",34.5745541,-118.0273213
Palmdale S.D.A. Church,1st & 3rd Monday 4pm - 5:30 PM,1758 E. Avenue R,"Palmdale, CA 93550, United States","1758 E. Avenue R Palmdale, CA 93550, United States",34.5722506,-118.0963295
Panorama Baptist Church,Wednesday 11am - 1pm,8767 Woodman St,"Arleta, CA 91331, United States","8767 Woodman St Arleta, CA 91331, United States",34.2287705,-118.43577
Paralyzed Veterans of America California Chapter,Monday - Thursday 10am-12pm & 2pm-4pm Friday  by Appt Only,5901 E. 7th St,"Long Beach, CA 90822, United States","5901 E. 7th St Long Beach, CA 90822, United States",33.7785537,-118.11859
Paramount Care Foundation,Friday 8am - 10am,8206 Alondra Blvd,"Paramount, CA 90723, United States","8206 Alondra Blvd Paramount, CA 90723, United States",33.8890362,-118.1557462
Paramount S.D.A Church,1st & 3rd Tuesday 11:30am-1pm,9438 Alondra Blvd,"Bellflower, CA 90706, United States","9438 Alondra Blvd Bellflower, CA 90706, United States",33.8889844,-118.1329548
PARS Equality Center,"Friday 7/12, 7/26, 8/9, 8/26, 9/6 & 9/20 11 am - 2 pm",4954 Van Nuys Blvd,"Sherman Oaks, CA 91403, United States","4954 Van Nuys Blvd Sherman Oaks, CA 91403, United States",34.1609126,-118.4482222
"Pasadena City College Foundation, Inc.","Tuesday, Wednesday, Thursday 10 am-4 pm",1570 E. Colorado Blvd,"RM CC211, Pasadena, CA 91106, United States","1570 E. Colorado Blvd RM CC211, Pasadena, CA 91106, United States",34.1439461,-118.118761
Pasadena City College MFP,1st Tuesday 12pm-2pm,1570 E. Colorado Blvd,"Pasadena, CA 91106, United States","1570 E. Colorado Blvd Pasadena, CA 91106, United States",34.1439461,-118.118761
Pentecostal City Mission Church,Saturday 9:30am-11am,4610 S. Hooper Avenue,"Los Angeles, CA 90011, United States","4610 S. Hooper Avenue Los Angeles, CA 90011, United States",34.001811,-118.2518857
Penuel Missionary Baptist Church,2nd & 4th Saturday 10am-11am,215 E. 108th St,"Los Angeles, CA 90061, United States","215 E. 108th St Los Angeles, CA 90061, United States",33.9385369,-118.2711761
Pico Union Project,Thursday 10:30am - 12:30pm,1153 Valencia Street,"Los Angeles, CA 90015, United States","1153 Valencia Street Los Angeles, CA 90015, United States",34.0457102,-118.2742812
Plain Truth Mission,Tuesday 12pm-2pm,9501 Avalon Blvd,"Los Angeles, CA 90003, United States","9501 Avalon Blvd Los Angeles, CA 90003, United States",33.9500849,-118.2655202
Pomona Fairplex,11/19/2025 | 9am - 12pm,Fairplex Dr.,"Pomona, CA 91768, United States","Fairplex Dr. Pomona, CA 91768, United States",34.0765296,-117.7824715
Pools of Hope,Saturdays 11am-1pm,6801 Long Beach Blvd,"Long Beach, CA 90805, United States","6801 Long Beach Blvd Long Beach, CA 90805, United States",33.8778635,-118.2042572
Praise Sanctuary Ministries,Thursday 12pm-3pm,10807 S. Vermont Ave,"Los Angeles, CA 90044, United States","10807 S. Vermont Ave Los Angeles, CA 90044, United States",33.9379,-118.2921573
Presentation of Mary Catholic,Thursday 9am-11am,6406 Parmelee Avenue,"Los Angeles, CA 90001, United States","6406 Parmelee Avenue Los Angeles, CA 90001, United States",33.981474,-118.2496095
Priase Chapel Christian Fellowship - HP,"2nd Sat 8:00a-10am, 4th Tues 5pm-7pm",3034 E. Gage Ave,"Huntington Park, CA 90255, United States","3034 E. Gage Ave Huntington Park, CA 90255, United States",33.9806819,-118.2144694
Principe de Paz,"Thursday  10am-12pm,  10/02, 10/16, 10/30, 11/13, 11/27 CLOSED December 2025",6706 Vinevale Avenue,"Bell, CA 90201, United States","6706 Vinevale Avenue Bell, CA 90201, United States",33.9742748,-118.1809886
Proclaim International Ministries,Saturday 10am-11am,1517 E. Alondra Blvd,"Compton, CA 90221, United States","1517 E. Alondra Blvd Compton, CA 90221, United States",33.888992,-118.2052668
Progress Baptist Church,"Thursday 10/2, 10/16, 10/30, 11/13, 11/27, 12/11, 12/25 12pm-1pm",2122 El Segundo Blvd,"Compton, CA 90222, United States","2122 El Segundo Blvd Compton, CA 90222, United States",33.9159186,-118.2347513
"Project 29:11, A Community Development Corporation",Friday 1 pm - 3 pm,418 N. Second Avenue,"Covina, CA 91723, United States","418 N. Second Avenue Covina, CA 91723, United States",34.0895445,-117.8875703
Project RESPECTT,2nd & 4th Thursday 10am-12pm,11986 Front Street,"Norwalk, CA 90650, United States","11986 Front Street Norwalk, CA 90650, United States",33.9093966,-118.0780752
Puente Latino Association,2nd Saturday  8am - 9am,6335 Myrtle Ave,"Long Beach, CA 90805, United States","6335 Myrtle Ave Long Beach, CA 90805, United States",33.8704423,-118.1824804
PUENTE Learning Center,1st & 3rd Wednesday 12:30pm-3:30pm,501 S. Boyle Ave,"Los Angeles, CA 90033, United States","501 S. Boyle Ave Los Angeles, CA 90033, United States",34.0414738,-118.2201529
Purpose LA,1st and 3rd Wednesday 6pm-7:30pm,8025 Remmet Ave,"Canoga Park, CA 91304, United States","8025 Remmet Ave Canoga Park, CA 91304, United States",34.2164296,-118.6005246
RCCG -  Jesus Embassy Los Angeles,2nd & 4th Monday 5:30pm-7pm & 1st & 3rd Saturday 10am-11:30am,442 E. El Segundo,"Los Angeles, CA 90061, United States","442 E. El Segundo Los Angeles, CA 90061, United States",33.9161258,-118.2660491
RCCG Victory House of California,"Saturday 130pm-3pm, Sunday 12pm-3pm",13812 Saticoy St,"Panorama City, CA 91402, United States","13812 Saticoy St Panorama City, CA 91402, United States",34.2096024,-118.4338519
Redeemer Lutheran Outreach,Thursday 11am-1:30pm,20025 Chase Street,"Winnetka, CA 91306, United States","20025 Chase Street Winnetka, CA 91306, United States",34.2256917,-118.5699112
Rehoboth Courage Church,Saturday 10 am - 12:30 pm,568 W. Compton Boulevard,"Compton, CA 90220, United States","568 W. Compton Boulevard Compton, CA 90220, United States",33.8955867,-118.2336673
Renewed Life Ministries,1st & 3rd Staurday 9am-12pm,132 E. Artesia Blvd,"Long Beach, CA 90805, United States","132 E. Artesia Blvd Long Beach, CA 90805, United States",33.8739046,-118.2011365
Rescue Mission Alliance -  Village Mobile Park,"Last Saturday 9 am - 9:30 am OPEN 11/22, 12/20 CLOSED 11/29, 12,27",231 W. Ave 6,"Lancaster, CA 93534, United States","231 W. Ave 6 Lancaster, CA 93534, United States",34.6946278,-118.1473771
Rescue Mission Alliance - I Lead Charter School,3rd Friday 12:30pm-2pm,254 E. Ave K-4,"Lancaster, CA 93535, United States","254 E. Ave K-4 Lancaster, CA 93535, United States",34.6709714,-118.1260914
Rescue Mission Alliance - Lancaster LDS Church,Thursday 2pm - 4pm,4052 W. Ave L,"Lancaster, CA 93535, United States","4052 W. Ave L Lancaster, CA 93535, United States",34.6593602,-118.2032091
Rescue Mission Alliance - Lighthouse Assembly of God Church,Friday 9:30am-10:30am,38500 9th Street East,"Palmdale, CA 93550, United States","38500 9th Street East Palmdale, CA 93550, United States",34.5817325,-118.1140052
Rescue Mission Alliance - Shady Elms Mobile Park,"Last Saturday 9 am - 9:30 am OPEN 11/22, 12/20 CLOSED 11/29, 12,27",43155 Sierra Hwy,"Lancaster, CA 93534, United States","43155 Sierra Hwy Lancaster, CA 93534, United States",34.6673485,-118.1336634
Rescue Mission Alliance - The Highlands Church,2nd & Last Saturday 12:30pm-1:30pm,39625 20th Street West,"Palmdale, CA 93551, United States","39625 20th Street West Palmdale, CA 93551, United States",34.6028712,-118.1667573
Rescue Mission Alliance -Christian Life Assembly,3rd Sunday 11:30am-12:30pm,3250 Lancaster Blvd,"Lancaster, CA 93535, United States","3250 Lancaster Blvd Lancaster, CA 93535, United States",34.6966815,-118.0711793
Rescue Mission Alliance -Eastside union School District,2nd Friday 11am-1pm,44938 30th Street East,"Lancaster, CA 93535, United States","44938 30th Street East Lancaster, CA 93535, United States",34.7004374,-118.0760554
Rescue Mission Alliance -Iglesia Nueva Vida,Friday 11:30am-12:30pm,3030 East Ave R-8,"Palmdale, CA 93550, United States","3030 East Ave R-8 Palmdale, CA 93550, United States",34.5651301,-118.0753592
Rescue Mission Alliance -Joshua Elementary School,"Last Saturday 10:15 am - 11:30 am OPEN 11/22, 12/20 CLOSED 11/29, 12,27",43926 2nd St E,"Lancaster, CA 93535, United States","43926 2nd St E Lancaster, CA 93535, United States",34.6804319,-118.1265318
Rescue Mission Alliance -Living Word Worship Center,2nd & 4th Thursday 3pm-7pm,1430 West Ave I,"Lancaster, CA 93535, United States","1430 West Ave I Lancaster, CA 93535, United States",34.7037064,-118.1561516
Rescue Mission Alliance -Pearblossom Foursquare Church,Saturday 9:30am-10:30am,34005 123rd St E,"Pearblossom, CA 93553, United States","34005 123rd St E Pearblossom, CA 93553, United States",34.502923,-117.91003
Rescue Mission Alliance -Renew Life Fellowship,2nd Saturday 10:30am-11:30am,44950 Mall Loop Dr,"Lancaster, CA 93535, United States","44950 Mall Loop Dr Lancaster, CA 93535, United States",34.7002639,-118.1729778
Rescue Mission Alliance -Twin Lakes Community Church,Last Saturday 9am-10am,17213 Lake Los Angeles Ave,"Palmdale, CA 93591, United States","17213 Lake Los Angeles Ave Palmdale, CA 93591, United States",34.6074112,-117.8232664
Reseda Church of Crist,Friday  3:15pm - 4:30pm,7806 Reseda Blvd,"Reseda, CA 91335, United States","7806 Reseda Blvd Reseda, CA 91335, United States",34.2122949,-118.5356166
Revelation Church Apostolic Faith Inc,2nd & 4th Saturday 12pm-2pm,8229 S. San Pedro,"Los Angeles, CA 90003, United States","8229 S. San Pedro Los Angeles, CA 90003, United States",33.964682,-118.2698153
"Rich with Attitude, Inc.",2nd & 4th  Saturday 10:30am-12pm,6111 S. Gramercy Place,"Los Angeles, CA 90047, united States","6111 S. Gramercy Place Los Angeles, CA 90047, united States",33.984096,-118.3139205
Rio Hondo College Foundation **USDA ONLY**,"Monday-Thursday8am-7pm, Friday 8am-2pm",3600 Workman Mill Road,"Whittier, CA 90601, United States","3600 Workman Mill Road Whittier, CA 90601, United States",34.019466,-118.033803
RJC Foundation,2nd & 4th Saturday 8am-2pm,8632 Van Nuys,"Panorama City, CA 91402, United States","8632 Van Nuys Panorama City, CA 91402, United States",34.2270682,-118.4498896
RJC Foundation,1st & 3rd Saturday 8 am - 2 pm,1212 Stanford Ave,"Los Angeles, CA 90021, United States","1212 Stanford Ave Los Angeles, CA 90021, United States",34.0317234,-118.2497832
"Roadside Assistance Ministry, Inc.",Saturday 8am-10am,2302 W. 132nd Street,"Los Angeles, CA 90059, United States","2302 W. 132nd Street Los Angeles, CA 90059, United States",33.9122011,-118.2566353
Rock of the Valley,Tuesday 4pm - 5pm,7722 Kester Ave,"Van Nuys, CA 91401, United States","7722 Kester Ave Van Nuys, CA 91401, United States",34.2109398,-118.4570805
Rose Banner Ministries Inc.,1st & 3rd Sat 10 am - 12 pm,5014 S. Western Avenue,"Los Angeles, CA 90062, United States","5014 S. Western Avenue Los Angeles, CA 90062, United States",33.9977551,-118.308683
Rosewood Church,Friday 3pm - 4pm,10115 Rose Street,"Bellflower, CA 90706, United States","10115 Rose Street Bellflower, CA 90706, United States",33.8700876,-118.117937
Rosewood United Methodist Church,1st and 3rd Saturday 830am - 12:30pm,4101 Rosewood Ave,"Los Angeles, CA 90004, United States","4101 Rosewood Ave Los Angeles, CA 90004, United States",34.0793667,-118.2932125
Rowland Heights Community Christian Church,4th Thursday 9 am - 11 am,19309 Colima Road,"Rowland Heights, CA 91748, United States","19309 Colima Road Rowland Heights, CA 91748, United States",33.987647,-117.8817436
Rowland Heights Community Christian Church MFP,4th Thursday 9am-11am,19309 Colima Rd.,"La Puente, CA 91748, United States","19309 Colima Rd. La Puente, CA 91748, United States",33.987647,-117.8817436
S.V.D.P. Our Lady of the Holy Rosary Church,"Tuesday, Friday 900am - 1130am",7800 Vineland Ave,"Sun Valley, CA 91352, United States","7800 Vineland Ave Sun Valley, CA 91352, United States",34.2125235,-118.3699128
S.V.P. All Souls Conference,1st & 3rd Monday 12 pm- 2 pm,29 S. Electric Avenue,"Alhambra, CA 91803, United States","29 S. Electric Avenue Alhambra, CA 91803, United States",34.0905469,-118.1406118
SACOP - Southern Area Community Outreach Project,2nd & 4th Saturday 10am-2pm,1454 E. 100th St,"Los Angeles, CA 90002, United States","1454 E. 100th St Los Angeles, CA 90002, United States",33.94592,-118.2488706
Sacred Heart Catholic Church,1 & 3 Wednesday 9 am - 11 am,600 W. Mariposa St.,"Altadena, CA 91001, United States","600 W. Mariposa St. Altadena, CA 91001, United States",34.1959769,-118.1601084
Saint Mark Food Pantry,Wednesday 10 am - 12 pm,8305 S. Gramercy Place,"Los Angeles, CA 90047, United States","8305 S. Gramercy Place Los Angeles, CA 90047, United States",33.9633636,-118.3139195
SALVA,2nd & 4th Friday 9:30am-11:30am,503 E Ave Q3,"Palmdale, CA 93550, United States","503 E Ave Q3 Palmdale, CA 93550, United States",34.584342,-118.1206354
Salvation Army -  Bellflower Temple Corps,Thursdays 11 am - 12:00 pm & 2 pm - 4 pm,9644 Cedar St,"Bellflower, CA 90706, United States","9644 Cedar St Bellflower, CA 90706, United States",33.870683,-118.1275376
Salvation Army -  Compton Corps Community Center,Wednesday 10am - 12pm; 1pm-4pm,736 E. Compton Blvd.,"Compton, CA 90221, United States","736 E. Compton Blvd. Compton, CA 90221, United States",33.8956552,-118.2152697
Salvation Army -  East L.A.,"Monday - Friday 9am - 1230pm, 1pm - 330pm",140 N. Eastman Avenue,"Los Angeles, CA 90063, United States","140 N. Eastman Avenue Los Angeles, CA 90063, United States",34.0369606,-118.185449
Salvation Army -  Glendale,Monday -Thursday 12pm - 3pm,320 W. Windsor Road,"Glendale, CA 91204, United States","320 W. Windsor Road Glendale, CA 91204, United States",34.1363472,-118.2588065
Salvation Army -  L.A. Central Corp,"1st Wednesday, Friday 10 am - 12 pm",1532 W. 11th Street,"Los Angeles, CA 90015, United States","1532 W. 11th Street Los Angeles, CA 90015, United States",34.0471649,-118.2745429
Salvation Army -  L.A. Central Corp *Senior Pantry*,1st Friday 10 am - 12 pm,1532 W. 11th Street,"Los Angeles, CA 90015, United States","1532 W. 11th Street Los Angeles, CA 90015, United States",34.0471649,-118.2745429
Salvation Army -  South L.A.,"Monday 2:15 pm - 4 pm, Wednesday 10 am - 1 pm, 2:15 pm - 4 pm, Friday 10 am - 1 pm",7651 S. Central Avenue,"Los Angeles, CA 90001, United States","7651 S. Central Avenue Los Angeles, CA 90001, United States",33.9697952,-118.2567728
Salvation Army -  Stillman Sawyer Family Services,"Monday , Wednesday & friday 9am-4pm Closed for Lunch 12pm-1pm",820 Lomita Blvd.,"Harbor City, CA 90710, United States","820 Lomita Blvd. Harbor City, CA 90710, United States",33.7973708,-118.2896156
Salvation Army - Pasadena Tabernacle,Monday- Friday 9 am - 11:30 am [CLOSED MAJOR HOLIDAYS],"1000 E. Walnut Street, Suite 106","Pasadena, CA 91106, United States","1000 E. Walnut Street, Suite 106 Pasadena, CA 91106, United States",34.1494471,-118.1298785
Salvation Army Bell Shelter,Wednesdays & fridays 12:30pm-1:30 pm,5600 Rickenbacker Road.,"Building 2A/B, Bell, CA 90201, United States","5600 Rickenbacker Road. Building 2A/B, Bell, CA 90201, United States",33.9896965,-118.1698097
Salvation Army Hollywood Corps.,Thursday 9am-1pm,5941 Hollywood Blvd.,"Los Angeles, CA 90028, United States","5941 Hollywood Blvd. Los Angeles, CA 90028, United States",34.1021313,-118.3194023
Salvation Army of Long Beach Citadel,"Mon., Tue., Wed. & Fri. 9 am - 12 pm",3092 Long Beach Blvd,"Long Beach, CA 90807, United States","3092 Long Beach Blvd Long Beach, CA 90807, United States",33.8132772,-118.1889459
Salvation Army Redondo Beach,"Monday, Wednesday, Friday 10:00 am - 12:00 pm",125 W. Beryl Street,"Redondo Beach, CA 90277, United States","125 W. Beryl Street Redondo Beach, CA 90277, United States",33.8465919,-118.3927517
Salvation Army San Fernando Valley Corps.,Monday 9 am - 12 pm; Wednesday 1 pm - 4 pm; Friday 9 am - 12 pm,14917 Victory Blvd.,"Van Nuys, CA 91411, United States","14917 Victory Blvd. Van Nuys, CA 91411, United States",34.1870842,-118.4584733
Salvation Army Santa Clarita Valley Corps,"Mon., Wed., & Fri. 9 am - 2 pm",22935 Lyons Avenue,"Santa Clarita, CA 91321, United States","22935 Lyons Avenue Santa Clarita, CA 91321, United States",34.380477,-118.5341796
Salvation Army Southeast Comm. Corp,"Tuesday 10 am - 11 am, Thursday 10 am - 12 pm & 2 - 5 pm",2965 E. Gage Avenue,"Huntington Park, CA 90255, United States","2965 E. Gage Avenue Huntington Park, CA 90255, United States",33.9814246,-118.2163307
Salvation Army- Lancaster Corp,Tuesday & Thursday 1:30pm-2:30pm,44517 Sierra Highway,"Lancaster, CA 93534, United States","44517 Sierra Highway Lancaster, CA 93534, United States",34.6915095,-118.1363432
Salvation Army-Whittier,Tuesday & Thursday 10 am - 1pm,12000 Washington Blvd,"Whittier, CA 90606, United States","12000 Washington Blvd Whittier, CA 90606, United States",33.9677126,-118.0553832
San Fernando Swapmeet,11/26/2025 | 9am - 12pm,585 Glenoaks Blvd,"San Fernando, CA 91340, United States","585 Glenoaks Blvd San Fernando, CA 91340, United States",34.2868801,-118.425523
San Gabriel Mission,2nd and 4th Sunday 7 am - 9 am,428 S. Mission Drive,"San Gabriel, CA 91776, United States","428 S. Mission Drive San Gabriel, CA 91776, United States",34.0969989,-118.1065731
San Gabriel Valley Family Center,Friday 10am-12pm,2144 Tyler Avenue,"South El Monte, CA 91733, United States","2144 Tyler Avenue South El Monte, CA 91733, United States",34.0539447,-118.035381
San Gabriel Valley Family Center,Thursday 2 pm - 4 pm,4602 N. Peck Road,"El Monte, CA 91732, United States","4602 N. Peck Road El Monte, CA 91732, United States",34.0879104,-118.0155253
San Pedro Temple Corps Salvation Army,"Wednesday, Friday 9 am - 12 pm",138 S. Bandini Street,"San Pedro, CA 90731, United States","138 S. Bandini Street San Pedro, CA 90731, United States",33.742665,-118.298654
Santa Clarita Valley Food Pantry,"Monday 11 am - 2 pm, Tuesday, Thursday & Saturday  9 am - 12 pm, Wednesday 2 pm - 5 pm,",24133 Railroad Avenue,"Newhall, CA 91321, United States","24133 Railroad Avenue Newhall, CA 91321, United States",34.376518,-118.5253018
Santa Clarita Valley Food Pantry,2nd Thursday 9:30 am - 11 am,32142 Crown Valley Road,"Acton, CA 93510, United States","32142 Crown Valley Road Acton, CA 93510, United States",34.4710312,-118.1970346
Santa Clarita Valley Food Pantry,3rd Thursday 9:30 am - 11 am,23520 Wiley Canyon Road,"Valencia, CA 91355, United States","23520 Wiley Canyon Road Valencia, CA 91355, United States",34.3904861,-118.5461929
Santa Clarita Valley Food Pantry,1st  Wednesday 9:30 am - 11 am,24700 Valley Street,"Santa Clarita, CA 91321, United States","24700 Valley Street Santa Clarita, CA 91321, United States",34.3767234,-118.5398966
Santa Clarita Valley Food Pantry,2nd Tuesday 9:30 am - 11 am,18701 Flying Tiger Drive,"Santa Clarita, CA 91351, United States","18701 Flying Tiger Drive Santa Clarita, CA 91351, United States",34.4070731,-118.45957
Santa Clarita Valley Food Pantry,3rd Tuesday 9:30 am - 11 am,26705 Bouquet Canyon Road,"Saugus, CA 91350, United States","26705 Bouquet Canyon Road Saugus, CA 91350, United States",34.4316044,-118.535084
Santa Clarita Valley Food Pantry,1st Thursday 930am - 11am,31990 Castaic Lake Road,"Castaic, CA 91384, United States","31990 Castaic Lake Road Castaic, CA 91384, United States",34.5045662,-118.6162211
Santa Clarita Valley Food Pantry,4th Tuesday 930am - 11am,23420 Rotello Ave,"Santa Clarita, CA 91355, United States","23420 Rotello Ave Santa Clarita, CA 91355, United States",34.3815179,-118.5438374
Santa Clarita Valley Food Pantry,1st Tuesday 930am - 11am,25857 Singing Hills Drive,"Valencia, CA 91321, United States","25857 Singing Hills Drive Valencia, CA 91321, United States",34.3937155,-118.5613774
Santa Clarita Valley Food Pantry,4th Wednesday 9:30am - 11am,24700 McBean Parkway,"Valencia, CA 91354, United States","24700 McBean Parkway Valencia, CA 91354, United States",34.394161,-118.5662901
Second Baptist Church of LA,2nd & 4th Saturday 9am - 12pm,2412 Griffith Avenue,"Los Angeles, CA 90011, United States","2412 Griffith Avenue Los Angeles, CA 90011, United States",34.0211907,-118.2562255
"Seeds of Morning Glory, Inc. / Black Infant Health",4th Monday 11am-2pm,3820 Cherry Ave,"Long Beach, CA 90807, United States","3820 Cherry Ave Long Beach, CA 90807, United States",33.8274504,-118.166675
"Seeds of Morning Glory, Inc. / Destiny House Ministries",1st Saturday 11am-1pm,15741 Woodruff Ave,"Bellflower, CA 90706, United States","15741 Woodruff Ave Bellflower, CA 90706, United States",33.890293,-118.1177619
"Seeds of Morning Glory, Inc. / Windward Village",4th Friday 12pm-2pm,3595 Santa Fe Ave,"Long Beach, CA 90805, United States","3595 Santa Fe Ave Long Beach, CA 90805, United States",33.8204752,-118.2182001
Servants Arms Community Based Organization,2nd & 4th Thursday 2:30pm-5:30pm CLOSED 11/27 & 12/25,1720 N. Walnut Avenue,"La Puente, CA 91744, United States","1720 N. Walnut Avenue La Puente, CA 91744, United States",34.0498568,-117.933962
Service Center For Independent Life,Friday 10am--3pm,107 South Spring Street,"Claremont, CA 91711, united States","107 South Spring Street Claremont, CA 91711, united States",34.0934512,-117.7169943
Shekinah Worship Center,4th Saturday 10:30am - 12pm CLOSED 10/25 Open 10/18,42640 10th Street West,"Lancaster, CA 93534, United States","42640 10th Street West Lancaster, CA 93534, United States",34.6578879,-118.14719
Shepherd's Pantry,"Wednesday, Thursday 5pm - 7pm",657 E. Arrow Highway Unit J.,"Glendora, CA 91740, United States","657 E. Arrow Highway Unit J. Glendora, CA 91740, United States",34.1070744,-117.8510611
Shepherds Pantry,Tuesday 4pm - 7pm,1418 Arrow Highway,"Irwindale, CA 91706, United States","1418 Arrow Highway Irwindale, CA 91706, United States",34.1146429,-117.9746019
Shepherds Pantry  - New Beginnings,Friday 4pm - 7pm,3903 Tyler Avenue,"El Monte, CA 91731, United States","3903 Tyler Avenue El Monte, CA 91731, United States",34.0796078,-118.0334292
Shields for Families,Thursday 10 am - 2 pm,11705 Deputy Yamamoto  Place,"Lynwood, CA 90262, United States","11705 Deputy Yamamoto  Place Lynwood, CA 90262, United States",33.927086,-118.2290063
Silverlake Community Church,Wednesday 5 pm - 6:30 pm,2930 Hyperion Ave,"Los Angeles, CA 90027, United States","2930 Hyperion Ave Los Angeles, CA 90027, United States",34.1098785,-118.2702949
SMBC Community Outreach Program,4th Saturday 9am-11am,1611 Middleton Place,"Los Angeles, CA 90062, United States","1611 Middleton Place Los Angeles, CA 90062, United States",34.0156733,-118.3093749
SoLa I CAN Foundation,2nd & 4th Thursday 11:30am-1pm,4816 S. Western Ave,"Los Angeles, CA 90062, United States","4816 S. Western Ave Los Angeles, CA 90062, United States",33.9995385,-118.3085827
South Bay Vocational Center,Wednesday 10:30am-12:30pm,305 W. Torrance Blvd Unit G,"Carson, CA 90745, United States","305 W. Torrance Blvd Unit G Carson, CA 90745, United States",33.842268,-118.2816816
South Central Family Health Center- HP,4th  Tuesday 9 am - 11 am,7300 Santa Fe Ave,"Huntington Park, CA 90255, United States","7300 Santa Fe Ave Huntington Park, CA 90255, United States",33.9735747,-118.2299664
South Central Family Health Center- LA,2nd Tuesday 9 am - 11am,4425 S. Central Ave,"Los Angeles, CA 90011, United States","4425 S. Central Ave Los Angeles, CA 90011, United States",34.003116,-118.2567737
South Gate S.D.A. Church,1st & 3rd Friday 3:00 pm - 5:00 pm,3231 Minnesota Ave,"Lynwood, CA 90262, United States","3231 Minnesota Ave Lynwood, CA 90262, United States",33.9445495,-118.2144216
Sowing Seeds for Life,1st and 3rd Wednesday 10am - 12pm,305 East Arrow Highway,"Pomona, CA 91767, United States","305 East Arrow Highway Pomona, CA 91767, United States",34.0904991,-117.745565
Sowing Seeds For Life,2nd & 4th Tuesday & Wednesday 10am-3pm,1100 N. Grand Ave,"Walnut, CA 91789, United States","1100 N. Grand Ave Walnut, CA 91789, United States",34.0491997,-117.8381688
Spanish American S.D.A. Church,"2nd, 4th Wednesday 3 pm - 5 pm & 1st & 3rd Saturday 12:30 pm - 2 pm",1815 E. Bridge Street,"Los Angeles, CA 90033, United States","1815 E. Bridge Street Los Angeles, CA 90033, United States",34.0516427,-118.2151729
Springs of Hope,Saturday 8am-10am,6315 Eastern Ave,"Bell Gardens, CA 90201, United States","6315 Eastern Ave Bell Gardens, CA 90201, United States",33.976873,-118.163758
SS Peter and Paul Pantry,"Monday , Tuesday & Thursday 9:30am-11:30am",943 Lagoon Avenue,"Wilmington, CA 90744, United States","943 Lagoon Avenue Wilmington, CA 90744, United States",33.7823697,-118.2679653
SSS Good Samaritan Association,4th Saturday 8:00 am -12:00 pm Open 12/20 CLOSED 12/27,5035 Hedda St,"Lakewood, CA 90712, United States","5035 Hedda St Lakewood, CA 90712, United States",33.8644115,-118.1344785
St. Agnes Parish,Tuesday 9 am - 10:30 am,2625 S. Vermont Avenue,"Los Angeles, CA 90007, United States","2625 S. Vermont Avenue Los Angeles, CA 90007, United States",34.0320737,-118.2919555
St. Andrew Catholic Church,"Wednesday 9 am - 10:30 am, Saturday 7:30 am - 10:30 am",140 Chestnut Street,"Pasadena, CA 91103, United States","140 Chestnut Street Pasadena, CA 91103, United States",34.1501561,-118.1475106
St. Athanasius Episcopal Church - St. Paul's Commons,Friday 7 am - 9 am,840 Echo Park Avenue,"Los Angeles, CA 90026, United States","840 Echo Park Avenue Los Angeles, CA 90026, United States",34.073441,-118.2590918
St. Brigid Catholic Church,3rd Friday 9:30 am - 11 am,5214 S. Western Avenue,"Los Angeles, CA 90062, United States","5214 S. Western Avenue Los Angeles, CA 90062, United States",33.9945492,-118.3086137
St. Cecilia Catholic Church,4th Saturday 8:30am-10:30am,4230 S. Normandie Avenue,"Los Angeles, CA 90037, United States","4230 S. Normandie Avenue Los Angeles, CA 90037, United States",34.0060042,-118.2998256
St. Charles Service Center,"Sunday, Tuesday, Wednesday, Thursday, Saturday 9am-1145am",10825 Moorpark Street,"North Hollywood, CA 91602, United States","10825 Moorpark Street North Hollywood, CA 91602, United States",34.1508763,-118.3666481
St. Dominic Savio Church,Thursday 8am-10am,13400 Bellflower Blvd,"Bellflower, CA 90706, United States","13400 Bellflower Blvd Bellflower, CA 90706, United States",33.9094128,-118.1248979
St. Ferdinand Church,2nd & 4th Friday 9am - 11am,1040 Coronel Street,"San Fernando, CA 91340, United States","1040 Coronel Street San Fernando, CA 91340, United States",34.2807305,-118.4435086
St. Francis Center,Wednesday - Saturday 11 am - 12:30 pm,1835 S. Hope Street,"Los Angeles, CA 90015, United States","1835 S. Hope Street Los Angeles, CA 90015, United States",34.0339857,-118.2697179
St. Francis Center - South Central LAMP,Wednesday 10:30 am 12 pm,892 E. 48th Street,"Los Angeles, CA 90011, United States","892 E. 48th Street Los Angeles, CA 90011, United States",34.0000253,-118.2600171
St. Francis Center- Homeboy Industries,"Friday 10/10, 10/24, 11/07, 11/21, 12/05, 12/19 10:30 am - 12 pm",130 W. Bruno St,"Los Angeles, CA 90012, United States","130 W. Bruno St Los Angeles, CA 90012, United States",34.062279,-118.2357098
St. Francis Center- Hubert Humphrey Medical Clinic,"Thursday 10/09, 10/23, 11/06, 11/20, 12/04, 12/18  10:30am-12pm",5850 S. Main Street,"Los Angeles, CA 90003, United States","5850 S. Main Street Los Angeles, CA 90003, United States",33.9883999,-118.273401
St. Francis Center-Los Angeles Trade Tech,"Thursday10/02, 10/16, 10/30, 11/13, 11/27, 12/05, 12/19 10:30am - 12 pm",400 W. Washington Blvd,"Los Angeles, CA 90015, United States","400 W. Washington Blvd Los Angeles, CA 90015, United States",34.0311432,-118.2702768
St. George Church,"2nd, 4th Thursday 2 pm - 4 pm",15721 Cornuta Avenue,"Bellflower, CA 90706, United States","15721 Cornuta Avenue Bellflower, CA 90706, United States",33.8906175,-118.1201423
St. Gertrudes Conference,"1st, 4th Friday 9 am - 11:30 am",7025 Garfield Avenue,"Bell Gardens, CA 90201, United States","7025 Garfield Avenue Bell Gardens, CA 90201, United States",33.9678855,-118.1507258
St. James Episcopal Church,Thursday 8 am - 9 am,3903 Wilshire Boulevard,"Los Angeles, CA 90010, United States","3903 Wilshire Boulevard Los Angeles, CA 90010, United States",34.062041,-118.3120829
St. John Baptist Church,3rd Saturday 9am-11am,936 W. 49th Street,"Los Angeles, CA 90037, United States","936 W. 49th Street Los Angeles, CA 90037, United States",33.9984458,-118.2904377
St. John Coptic Orthodox,"2nd, 4th Thursday 5 pm - 7 pm",21329 E. Cienega Avenue,"Covina, CA 91724, United States","21329 E. Cienega Avenue Covina, CA 91724, United States",34.1033835,-117.8381149
St. John Vianney Church,Saturday 7:30 am - 10 am,1345 Turnbull Canyon Road,"Hacienda Heights, CA 91745, United States","1345 Turnbull Canyon Road Hacienda Heights, CA 91745, United States",34.010782,-117.9796305
St. John's Cathedral,3rd Saturday 8:30 am - 10:30 am,514 W. Adams Boulevard,"Los Angeles, CA 90007, United States","514 W. Adams Boulevard Los Angeles, CA 90007, United States",34.0274558,-118.2755905
St. John's Family and Wellness Center,4th Monday 9am-11am,6818 Avalon Blvd.,"Los Angeles, CA 90003, United States","6818 Avalon Blvd. Los Angeles, CA 90003, United States",33.9777627,-118.264973
St. John's Family and Wellness Center,3rd Thursday 9am-11am,4251 Crenshaw Blvd.,"Los Angeles, CA 90008, United States","4251 Crenshaw Blvd. Los Angeles, CA 90008, United States",34.0066601,-118.3349627
St. Joseph Conference,Tuesday & Friday 9am-12pm,1150 W. Holt Avenue,"Pomona, CA 91768, United States","1150 W. Holt Avenue Pomona, CA 91768, United States",34.0612939,-117.7688122
St. Lawrence  Church,Tuesday & Thursday 7 am - 8:30 am,10122 Compton Avenue,"Los Angeles, CA 90002, United States","10122 Compton Avenue Los Angeles, CA 90002, United States",33.9443936,-118.2460061
St. Margaret Mary Christian Service,Monday - Thursday 10am-11:45am & 1:15pm-2pm &  Friday 9:30am-11:45am,25511 Eshelman Ave,"Lomita, CA 90717, United States","25511 Eshelman Ave Lomita, CA 90717, United States",33.7919819,-118.3149479
St. Margaret's Center (Catholic Charities of L.A.),Tuesday - Friday 1pm - 4pm,10217 S.Inglewood Ave,"Inglewood, CA 90304, United States","10217 S.Inglewood Ave Inglewood, CA 90304, United States",33.9430398,-118.3618444
St. Mary and St. Athanasius Coptic Church,3rd Sunday & 3rd Tuesday 9am - 12pm,17431 Roscoe Blvd.,"Northridge, CA 91325, United States","17431 Roscoe Blvd. Northridge, CA 91325, United States",34.2218633,-118.5130358
St. Mary's Place,Mondays & Thursdays 3pm-6pm & 2nd & 4th Saturday 10am-12pm,7215 Newlin Avenue,"Whittier, CA 90602, United States","7215 Newlin Avenue Whittier, CA 90602, United States",33.9760737,-118.0416623
St. Paul of The Cross Church,Tuesday 11am - 12pm,14020 Foster Road.,"La Mirada, CA 90638, United States","14020 Foster Road. La Mirada, CA 90638, United States",33.9092775,-118.0321942
St. Paul's Methodist Church,1st Thursday of the Month 9am-11am,2600 Nelson Ave,"Redondo Beach, CA 90278, United States","2600 Nelson Ave Redondo Beach, CA 90278, United States",33.8745351,-118.3640839
St. Paul's Methodist Church(Project Needs),1st Thursday 9am - 11am,2600 Nelson Avenue,"Redondo Beach, CA 90278, United States","2600 Nelson Avenue Redondo Beach, CA 90278, United States",33.8745351,-118.3640839
St. Pauls First Lutheran Church,4th Saturday 10am-12pm,5244 Tujunga Ave,"North Hollywood, CA 91601, United States","5244 Tujunga Ave North Hollywood, CA 91601, United States",34.1662177,-118.3785401
St. Philip Lutheran Church,3rd Friday 7:30am-10am,1110 N. Dwight Avenue,"Compton, CA 90222, United States","1110 N. Dwight Avenue Compton, CA 90222, United States",33.9044373,-118.2426715
St. Thomas Center,"2nd, 3rd Saturday 5am - 7:30 am",2727 W. Pico Boulevard,"Los Angeles, CA 90006, United States","2727 W. Pico Boulevard Los Angeles, CA 90006, United States",34.0474756,-118.2984465
St. Timothy's Episcopal Church,Last Saturday of the month 10:00 am -12:00 pm,312 S. Oleander Ave,"Compton, CA 90220, United States","312 S. Oleander Ave Compton, CA 90220, United States",33.8934099,-118.2280832
St. Vincent de Paul Church,Friday 8am-10am,621 W. Adams Boulevard,"Los Angeles, CA 90007, United States","621 W. Adams Boulevard Los Angeles, CA 90007, United States",34.0289272,-118.2768377
Stepping Stones,"Wednesday 10am-11:30am ,  Sunday 11am-12pm",451 E. 223rd Street,"Carson, CA 90745, United States","451 E. 223rd Street Carson, CA 90745, United States",33.8247134,-118.2685591
Student Lunch Box Inc,"Wednesday 10/08, 10/29, 11/12, 11/25, 12/03   11am-1pm",6201 Winnetka Ave,"Woodland Hills, CA 91367, United States","6201 Winnetka Ave Woodland Hills, CA 91367, United States",34.1862195,-118.5822829
Student Lunch Box Inc,Thursday 1:00 pm - 2:30pm CANCELED 10/30,855 N. Vermont Ave,"Los Angeles, CA 90029, United States","855 N. Vermont Ave Los Angeles, CA 90029, United States",34.0873462,-118.2928204
Sunnyside Baptist Church,"1st, 2nd & 4th Friday 2:30pm-3:30pm & 3rd Saturday 11am-2pm",9317 S. Budlong Ave,"Los Angeles, CA 90044, United States","9317 S. Budlong Ave Los Angeles, CA 90044, United States",33.9513097,-118.2962459
Sunshine & Hope Foundation,Saturday 9am-11am,1925 W 62nd St,"Los Angeles, CA 90047, United States","1925 W 62nd St Los Angeles, CA 90047, United States",33.9835661,-118.3123916
Sylvia Nunn Angels,Saturday 12pm-1:30pm,200 N. Long Beach Blvd.,"Compton, CA 90221, United States","200 N. Long Beach Blvd. Compton, CA 90221, United States",33.8969987,-118.2077735
Tamarind Avenue S.D.A. Church,2nd Tuesday 9am - 11am,417 S. Tamarind Avenue,"Compton, CA 90220, United States","417 S. Tamarind Avenue Compton, CA 90220, United States",33.8925539,-118.2220065
Temple City Community Adult School,Tuesdays & Thursday 4pm-5pm,9664 Broadway,"Temple City, CA 91780, United States","9664 Broadway Temple City, CA 91780, United States",34.1003,-118.0575594
Temple of Emmanuel Ministries,1st & 3rd Friday 10am-12pm,1323 S. Long Beach Blvd,"Compton, CA 90221, United States","1323 S. Long Beach Blvd Compton, CA 90221, United States",33.8842869,-118.2060353
Temple of Salvation,Friday 12 am - 2pm,500 N. Acacia Ave,"Compton, CA 90220, United States","500 N. Acacia Ave Compton, CA 90220, United States",33.8994944,-118.2265834
Testimonial Community Love Center,Thursday 7:30am - 9:30am,5721 S. Western Avenue,"Los Angeles, CA 90062, United States","5721 S. Western Avenue Los Angeles, CA 90062, United States",33.9902117,-118.3094557
The Assembling Faith Missionary Baptist Church,1st Wednesday 11:30 AM - 1:30 PM,1233 W. 91st St,"Los Angeles, CA 90044, United States","1233 W. 91st St Los Angeles, CA 90044, United States",33.9543876,-118.2974346
The Beloved Church of God in Christ (COGIC),4th Saturday 10am-12pm November & December Distributions will be held the 3rd saturday,7529 South Main Street,"Los Angeles, CA 90003, United States","7529 South Main Street Los Angeles, CA 90003, United States",33.9709593,-118.2742003
The Bible Tabernacle (Venice),"Monday, Wednesday & Friday 9:30am-11:00am & 11:30am-12:30pm",1761 Washington Way,"Venice, CA 90291, United States","1761 Washington Way Venice, CA 90291, United States",33.9879631,-118.4627182
The Dream Center,Friday 10:30am-11:30am,3232 Estrada St,"Los Angeles, CA 90023, United States","3232 Estrada St Los Angeles, CA 90023, United States",34.021672,-118.2085275
The Dream Center,Tuesday 2:30pm-3:30pm,281 E Bloom Street,"Los Angeles, CA 90012, United States","281 E Bloom Street Los Angeles, CA 90012, United States",34.0636538,-118.2291697
The Dream Center,Tuesdays 10:30am-11:30am,500 S. Bixel St,"Los Angeles, CA 90017, United States","500 S. Bixel St Los Angeles, CA 90017, United States",34.054615,-118.2612081
The Dream Center,Friday 2:30pm-3:30pm,5601 Virginia Ave,"Hollywood, CA 90038, United States","5601 Virginia Ave Hollywood, CA 90038, United States",34.0920482,-118.3110805
The Dream Center,Tuesday 10:30am-11:30am,353 E Edgeware Rd,"Los Angeles, CA 90026, United States","353 E Edgeware Rd Los Angeles, CA 90026, United States",34.0653099,-118.25565
The Dream Center,Fridays 2:30pm-3:30pm,1714 54th St,"Los Angeles, CA 90058, United States","1714 54th St Los Angeles, CA 90058, United States",33.9937174,-118.2428082
The Dream Center,Wednesday 10:30am-11:30am,3135 Drew St,"Los Angeles, CA 90065, United States","3135 Drew St Los Angeles, CA 90065, United States",34.1186638,-118.2459925
The Dream Center,Tuesdays 10:30am-11:30am,273 S Bonnie Brea St,"Los Angeles, CA 90057, United States","273 S Bonnie Brea St Los Angeles, CA 90057, United States",34.0626172,-118.2701461
The Dream Center,Wednesday 10:30am-11:30am,2680 James M Wood Blvd,"Los Angeles, CA 90006, United States","2680 James M Wood Blvd Los Angeles, CA 90006, United States",34.0556561,-118.2863728
The Dream Center,Thursday 10:30am-11:30am,1100 Glendale Blvd,"Los Angeles, CA 90026, United States","1100 Glendale Blvd Los Angeles, CA 90026, United States",34.0763326,-118.2609707
The Dream Center,Thursdays 10:30am-11:30am,430 E 41st Place,"Los Angeles, CA 90011, United States","430 E 41st Place Los Angeles, CA 90011, United States",34.0080719,-118.2688197
The Dream Center,Thursday 10:30am-11:30am,205 S. Chicago St,"Los Angeles, CA 90033, United States","205 S. Chicago St Los Angeles, CA 90033, United States",34.0433574,-118.2134392
The Dream Center,Wednesdays 2:30pm-3:30pm,4409 W Adams Blvd,"Los Angeles, CA 90016, United States","4409 W Adams Blvd Los Angeles, CA 90016, United States",34.0329463,-118.3357846
The Dream Center,Friday 10:30am-11:30am,3457 N Mission Rd,"Los Angeles, CA 90031, United States","3457 N Mission Rd Los Angeles, CA 90031, United States",34.0671659,-118.2042113
The Dream Center,Friday 10:30am-11:30am,6908 S. Western Ave,"Los Angeles, CA 90047, United States","6908 S. Western Ave Los Angeles, CA 90047, United States",33.9767191,-118.3086201
The Dream Center,Tuesday 2:30pm-3:30pm,1500 E. 112th st,"Los Angeles, CA 90059, United States","1500 E. 112th st Los Angeles, CA 90059, United States",33.9330607,-118.2479843
The Episcopal Church of St. Andrew and St. Charles,Thursday 9:30am-10:30am CLOSED ON THANKSGIVING,16651 Rinaldi St,"Granada Hills, CA 91334, United States","16651 Rinaldi St Granada Hills, CA 91334, United States",34.2795486,-118.4954936
The House - A Church Family,Last Saturday 10am - 1130am,19345 Londelius St,"Northdrige, CA 91324, United States","19345 Londelius St Northdrige, CA 91324, United States",34.2300205,-118.5550443
The Lord's Church,2nd & 4th Wednesday 430pm - 6pm,9701 Flower Street,"Bellflower, CA 90706, United States","9701 Flower Street Bellflower, CA 90706, United States",33.8823366,-118.127309
The Lord's House of Refuge,Wednesday 5pm - 6pm,"456 E. Avenue K - 4, Suite I","Lancaster, CA 93535, United States","456 E. Avenue K - 4, Suite I Lancaster, CA 93535, United States",34.6707406,-118.121754
The New Temple M.B.C.,3rd Thursday 11am-1:30pm,8734 S. Broadway,"Los Angeles, CA 90003, United States","8734 S. Broadway Los Angeles, CA 90003, United States",33.9581792,-118.2778366
The SLAC Foundation,Wednesday 3 - 4pm,1700 Browning Blvd,"Los Angeles, CA 90062, United States","1700 Browning Blvd Los Angeles, CA 90062, United States",34.0117509,-118.3091487
The Sycamores,2nd & 4th Tuesday &  Thursday 9am - 12pm,861 Auto Center Drive,"Palmdale, CA 93551, United States","861 Auto Center Drive Palmdale, CA 93551, United States",34.5925167,-118.1468743
Timelist Group Inc.,Friday 10am-12pm,355 E. 105th Street,"Los Angeles, CA 90003, United States","355 E. 105th Street Los Angeles, CA 90003, United States",33.9412029,-118.2676328
"Toberman Neighborhood Center, Inc.","Monday, Wednesday & Friday 8:30am-5:30pm Tuesdays & thursday 8:30am-8pm & 1st & 3rd Saturday 9am-2pm",131 N. Grand Ave,"San Pedro, CA 90731, United States","131 N. Grand Ave San Pedro, CA 90731, United States",33.7438507,-118.2903072
Torre de Alabanza,Saturday 10am-12pm,822 Bradbourne Ave,"Duarte, CA 91010, United States","822 Bradbourne Ave Duarte, CA 91010, United States",34.1421638,-117.9588569
Tranquility Counseling Services,1st and 3rd Saturday 10 am-11 am,1119 E Rhea St,"Long Beach, CA 90806, United States","1119 E Rhea St Long Beach, CA 90806, United States",33.7928737,-118.1780462
Tri - State Community Healthcare Center,Friday 10am - 1pm,4137 Verdugo Road,"Los Angeles, CA 90065, United States","4137 Verdugo Road Los Angeles, CA 90065, United States",34.1261231,-118.2322019
Trinity Evangelical Lutheran Church,Saturday 10am - 1pm,997 E. Walnut,"Pasadena, CA 91106, United States","997 E. Walnut Pasadena, CA 91106, United States",34.1498132,-118.1298802
Trinity Pantry Ministry,Sunday 8:30am-9:30am,1450 W. 7th Street,"San Pedro, CA 90732, United States","1450 W. 7th Street San Pedro, CA 90732, United States",33.7381943,-118.3090033
True Rock Missionary Baptist Church,2nd & 4th Saturday 12pm-2pm,1725 W. Florence Ave,"Los Angeles, CA 90047, United States","1725 W. Florence Ave Los Angeles, CA 90047, United States",33.9747735,-118.3077256
Truett Memorial Southern Baptist Church,"Monday, Wednesday, Saturday 10am - 11am",3435 San Anseline Avenue,"Long Beach, CA 90808, United States","3435 San Anseline Avenue Long Beach, CA 90808, United States",33.8197742,-118.121052
Truett Missionary Southern Baptist Church,3rd Saturday 10am-12pm,3435 San Anseline Ave,"Long Beach, CA 90808, United States","3435 San Anseline Ave Long Beach, CA 90808, United States",33.8197742,-118.121052
TrueVine Independent Church,3rd Saturday 10am-12pm,1246 Firestone Blvd,"Los Angeles, CA 90001, United States","1246 Firestone Blvd Los Angeles, CA 90001, United States",33.9598605,-118.2523731
Tujunga United Methodist Church,Wednesday 11am - 1pm,9901 Tujunga Canyon Boulevard,"Tujunga, CA 91042, United States","9901 Tujunga Canyon Boulevard Tujunga, CA 91042, United States",34.2477613,-118.2773292
Turning Point,2nd and 4nd Friday 12pm-3pm,3756 Santa Rosalita Dr,"Los Angeles, CA 90008, United States","3756 Santa Rosalita Dr Los Angeles, CA 90008, United States",34.0088401,-118.3392091
Twin Lakes Church,2nd Saturday 9am-11am,17213 Lake Los Angeles Ave,"Palmdale, CA 93591, United States","17213 Lake Los Angeles Ave Palmdale, CA 93591, United States",34.6074112,-117.8232664
Union Church LA,"1st Wednesday 8 am - 9 am, 3rd Saturday 10 am - 12pm",201 S. New Ave,"Monterey Park, CA 91755, United States","201 S. New Ave Monterey Park, CA 91755, United States",34.0614171,-118.1081171
United University Church,"Thursday 8 am -10 am CLOSED  11/27, 12/25, 1/1",1053 W. 23rd Street,"Los Angeles, CA 90007, United States","1053 W. 23rd Street Los Angeles, CA 90007, United States",34.035096,-118.2831603
United University Church Bethesda Presbyterian Church,"Thursday 2pm-4pm  CLOSED 11/27, 12/25, 1/1",14404 S. Crenshaw Blvd,"Gardena, CA 90249, United States","14404 S. Crenshaw Blvd Gardena, CA 90249, United States",33.9237385,-118.326439
United University Church Westminster Presbyterian Church,"Thursday walk-Ups 10am-11am & Drive Thru 11am- 12pm  CLOSED 11/27, 12/25, 1/1",2230 W. Jefferson Blvd,"Los Angeles, CA 90018, United States","2230 W. Jefferson Blvd Los Angeles, CA 90018, United States",34.025279,-118.319818
Unity Fellowship of Christ Church,Tuesday 12pm - 3pm,5149 Jefferson Blvd,"Los Angeles, CA 90016, United States","5149 Jefferson Blvd Los Angeles, CA 90016, United States",34.025829,-118.3567449
Unity of Friends in Christ,2nd & 4th Friday 10am-12pm,9100 Tujunga Canyon Blvd,"Tujunga, CA 91402, United States","9100 Tujunga Canyon Blvd Tujunga, CA 91402, United States",34.2346062,-118.2702562
University S.D.A. Church,Wednesday 10am-2pm,1135 W. Martin Luther King Jr. Boulevard,"Los Angeles, CA 90037, United States","1135 W. Martin Luther King Jr. Boulevard Los Angeles, CA 90037, United States",34.0111879,-118.2956897
Va Por Ti,Saturday 11am-1pm,13015 S. Harris Ave,"Compton, CA 90221, United States","13015 S. Harris Ave Compton, CA 90221, United States",33.9040675,-118.1995288
Val Verde Park,11/18/2025 | 9am - 12pm,30300 Arlington Street,"Castaic Lake, CA 91384, United States","30300 Arlington Street Castaic Lake, CA 91384, United States",34.4448171,-118.6651265
Valley Crossroads S.D.A. Church,Saturday 2pm - 330pm 2nd & 4th,11350 Glenoaks Blvd.,"Pacoima, CA 91331, United States","11350 Glenoaks Blvd. Pacoima, CA 91331, United States",34.2772051,-118.4148508
Valley Park Church,Wednesday 3pm - 4pm,16514 Nordoff St,"North Hills, CA 91343, United States","16514 Nordoff St North Hills, CA 91343, United States",34.2350833,-118.4919618
Valley Vineyard Church,Sunday 8:00 AM - 9:30 AM,6642 Reseda Blvd,"Reseda, CA 91335, United States","6642 Reseda Blvd Reseda, CA 91335, United States",34.1914027,-118.5353841
"Vision 4 Tomorrow, Inc.",1st & 3rd Monday 11am- 2pm,4511 S. Avalon Blvd,"Los Angeles, CA 90011, United States","4511 S. Avalon Blvd Los Angeles, CA 90011, United States",34.0022102,-118.2656197
Vision de Cristo  Ministerio Kairos,Saturday 9 am - 11 am,1009 W 2nd St,"Pomona, CA 91766, United States","1009 W 2nd St Pomona, CA 91766, United States",34.0577307,-117.7613934
Volunteer Center South Bay Harbor Long Beach,Wednesday 11am-12pm & Friday 10am-12pm,1407 E. 4th Street,"Long Beach, CA 90802, United States","1407 E. 4th Street Long Beach, CA 90802, United States",33.7718148,-118.1740712
Volunteer Center South Bay Harbor Long Beach,Thursday 3pm-5pm,1230 Cravens Ave,"Torrance, CA 90501, United States","1230 Cravens Ave Torrance, CA 90501, United States",33.8358307,-118.3189263
Walden Family Services,Monday- Friday 10:00 am- 2:00 pm,6345 Balboa Blvd Building 2 #130,"Encino, CA 91316, United States","6345 Balboa Blvd Building 2 #130 Encino, CA 91316, United States",34.1862464,-118.501472
Watchitgrow Incorporation,2nd & 4th Wednesday 10am-11:30am,1010 108th St,"Los Angeles, CA 90044, United States","1010 108th St Los Angeles, CA 90044, United States",33.9379128,-118.29252
Watts 360 Foundation,Tuesday 9am-11am,11251 Compton Ave,"Los Angeles, CA 90059, United States","11251 Compton Ave Los Angeles, CA 90059, United States",33.9322755,-118.2472549
Watts Community Care,Fridays 9am-11 am,1541 E. 112th St,"Los Angeles, CA 90059, United States","1541 E. 112th St Los Angeles, CA 90059, United States",33.9333142,-118.2468885
We Help Inc.,"Wednesday 10:30 am - 12 pm, Saturday 8:30 am - 10:30 am",1330 E. 16th Street,"Long Beach, CA 90813, United States","1330 E. 16th Street Long Beach, CA 90813, United States",33.786996,-118.1745279
We Help Inc.,2nd Saturday 10am-1130am,11715 Compton Ave,"Los Angeles, CA 90059, United States","11715 Compton Ave Los Angeles, CA 90059, United States",33.9272352,-118.2464774
We Help Inc.,Saturday 10 am - 11:30 am,530 W. Alondra Blvd,"Compton, CA 90220, United States","530 W. Alondra Blvd Compton, CA 90220, United States",33.8881961,-118.233261
We Help Inc.,3rd Saturday 1130am-1m,1455 W. Willow St.,"Long Beach, CA 90810, United States","1455 W. Willow St. Long Beach, CA 90810, United States",33.8047871,-118.2119402
Wealth by Health Steps for Change Foundation,2nd & 4th  Saturday 9 am - 11 am,3027 Del Mar Ave,"Rosemead, CA 91770, United States","3027 Del Mar Ave Rosemead, CA 91770, United States",34.0633644,-118.099683
Wesley United Methodist Church,Thursday 8am-9:30am & 10am-12pm,5139 So. Main,"Los Angeles, CA 90037, United States","5139 So. Main Los Angeles, CA 90037, United States",33.9957292,-118.2743602
West Adams Church of Christ,3rd Saturday 12pm-2pm,4959 W. Adams Boulevard,"Los Angeles, CA 90016, United States","4959 W. Adams Boulevard Los Angeles, CA 90016, United States",34.032788,-118.3485011
West Adams Church of Christ,Monday 9:45am-11:45am,2301 E Alondra Blvd,"Compton, CA 90221, United States","2301 E Alondra Blvd Compton, CA 90221, United States",33.8890859,-118.1980872
West Angeles Community Corporation,"Tuesday, Wednesday, Thursday 11am-2pm",6028 Crenshaw Boulevard,"Los Angeles, CA 90043, United States","6028 Crenshaw Boulevard Los Angeles, CA 90043, United States",33.9841786,-118.3302596
West Coast Lions Football,Thursdays 9am-12pm,650 W Laurel Street,"Compton, CA 90220, United States","650 W Laurel Street Compton, CA 90220, United States",33.8916719,-118.2347537
West Los Angeles College Foundation,Monday- Friday 10am-2pm & 1st and 3rd Thursday 12PM - 3PM,9000 Overland Ave,"Culver City, CA 90230, United States","9000 Overland Ave Culver City, CA 90230, United States",34.0040367,-118.3861277
West Valley Food Pantry/ Prince of Peace Coalition,Monday - Thursday 9am - 1pm; Friday 9:30am - 12pm,5700 Rudnick Avenue,"Woodland Hills, CA 91367, United States","5700 Rudnick Avenue Woodland Hills, CA 91367, United States",34.1734389,-118.6117103
West Valley Food Pantry/ Prince of Peace Coalition Family Rescue,Monday - Friday 9am - 1pm,22103 Van Owen Street,"Canoga Park, CA 91303, United States","22103 Van Owen Street Canoga Park, CA 91303, United States",34.1945414,-118.6084134
White Memorial S.D.A. Church,4th Saturday 3 pm-5 pm,401 N. State Street,"Los Angeles, CA 90033, United States","401 N. State Street Los Angeles, CA 90033, United States",34.0502162,-118.2162036
Whittier S.D.A. Church,2nd and 4th Saturday 3pm-5pm,8841 Calmada Ave,"Whittier, CA 90605, United States","8841 Calmada Ave Whittier, CA 90605, United States",33.9563476,-118.0226141
Wilshire Presbyterian Church - Hope Net,Monday 8:30am - 10am,300 S. Western Ave,"Los Angeles, CA 90020, United States","300 S. Western Ave Los Angeles, CA 90020, United States",34.0685178,-118.308896
Women In Action Reaching Out,1st & 2nd Wednesday 9am-10am & 1st & 3rd Saturday 9am-10am,851 Via Carmelitos,"Long Beach, CA 90805, United States","851 Via Carmelitos Long Beach, CA 90805, United States",33.8490696,-118.1819111
World Harvest Christian Outreach,3rd Saturday 10am-12pm & 3rd Wednesday7pm - 9pm,224 West Lancaster Blvd.,"Lancaster, CA 93534, United States","224 West Lancaster Blvd. Lancaster, CA 93534, United States",34.6985424,-118.1325487
WSFB -  Faith Tabernacle Pantry,Sunday 1230 - 130pm,2147 Purdue Avenue,"Los Angeles, CA 90025, United States","2147 Purdue Avenue Los Angeles, CA 90025, United States",34.0370721,-118.4436692
WSFB -  Food Pantry L.A.X.,"Tuesday, Friday 10am - 12pm",355 E Beach Street,"Inglewood, CA 90302, United States","355 E Beach Street Inglewood, CA 90302, United States",33.9699603,-118.3499844
WSFB -  Holman United Methodist Church,"Monday, Wednesday, Friday 1 - 3pm referrals only",3320 W. Adams Boulevard,"Los Angeles, CA 90018, United States","3320 W. Adams Boulevard Los Angeles, CA 90018, United States",34.0316836,-118.32099
WSFB -  People Concern (OPCC),Tuesday 1pm - 2:30pm,503 Olympic Boulevard,"Santa Monica, CA 90401, United States","503 Olympic Boulevard Santa Monica, CA 90401, United States",34.0137976,-118.4890866
WSFB -  St. Joseph's Center,"Monday & Wednesday 10am-11:50am, Tuesday & Thursday 12pm-2:50pm",204 Hampton Drive,"Venice, CA 90291, United States","204 Hampton Drive Venice, CA 90291, United States",33.997843,-118.4778974
WSFB - Step Up on Second,Tuesday - Thursday 12pm - 2pm Friday 11am-12pm,1328 2nd Street,"Santa Monica, CA 90401, United States","1328 2nd Street Santa Monica, CA 90401, United States",34.0153881,-118.4981895
WSFB - Virginia Ave Park,Thursday 11am-12pm,2200 Virginia Avenue,"Santa Monica, CA 90404, United States","2200 Virginia Avenue Santa Monica, CA 90404, United States",34.0213488,-118.46766
WSFB- Church on Pearl Pantry,Wednesday 230pm-530pm,1520 Pearl Street,"Santa Monica, CA 90405, United States","1520 Pearl Street Santa Monica, CA 90405, United States",34.0137687,-118.4717963
WSFB- Salvation Army of Inglewood,"Tuesday, Wednesday 1pm-3pm",324 E. Queen Street,"Inglewood, CA 90301, United States","324 E. Queen Street Inglewood, CA 90301, United States",33.9627428,-118.3509888
WSFB- St. Augustine SAVES,"Monday, Wednesday, Friday 9am-1145am",3850 Jasmine Ave,"Culver City, CA 90232, United States","3850 Jasmine Ave Culver City, CA 90232, United States",34.0211068,-118.4007515
WSFB- St. Gerard's Social Services,Tuesday-9am-10am,4439 Inglewood Boulevard,"Los Angeles, CA 90066, United States","4439 Inglewood Boulevard Los Angeles, CA 90066, United States",33.995315,-118.4190942
Xaris Church of the Nazarene,2nd Saturday 11am-12pm & 2nd Sunday 11am-12pm,1417 W. Badillo Street,"West Covina, CA 91790, United States","1417 W. Badillo Street West Covina, CA 91790, United States",34.0873041,-117.934959
YMCA - Weingart East Los Angeles,Monday & Wednesday 9am-11am,2900 Whittier Blvd.,"Los Angeles, CA 90023, United States","2900 Whittier Blvd. Los Angeles, CA 90023, United States",34.0309719,-118.2090727
YMCA of Metropolitan Los Angeles,Wednesday 4 - 6pm,18810 Vanowen Street,"Reseda, CA 91335, United States","18810 Vanowen Street Reseda, CA 91335, United States",34.1935227,-118.5434106
YWCA Harbor Area,Thursday 11am-12pm,133 E. Opp Street,"Wilmington, CA 90744, United States","133 E. Opp Street Wilmington, CA 90744, United States",33.7832099,-118.261507
Zamora Park,Monday- Friday 9am - 5pm,11001 Mildred St,"El Monte, CA 91731, United States","11001 Mildred St El Monte, CA 91731, United States",34.0666542,-118.0352588
Zion Hill Baptist Church,"1st, 3rd Tuesday 10am - 12pm CLOSED 11/4",7860 10th Avenue,"Los Angeles, CA 90043, United States","7860 10th Avenue Los Angeles, CA 90043, United States",33.9678808,-118.3282499
Zoe Christian Fellowship,1st Saturday monthly 10am-12pm,10252 Mills Ave,"Whittier, CA 90604, United States","10252 Mills Ave Whittier, CA 90604, United States",33.9393425,-118.0337951
